francilin_id,lieu_nom,contact_nom,adresse,code_postal,commune,horaires,telephone,e_mail,site_web,aide,accessibilite,label,SIRET,thematique_principale,services,source,id_source
1,Médi@Bus,,,93600,Aulnay-sous-Bois,Fr 09:45-12:30,0158039222,bibmediabus@aulnay-sous-bois.com,https://www.aulnay-sous-bois.fr/mes-loisirs/culture/reseau-des-bibliotheques/mediabus/,"1,2",,,,2,"202,203,204,205,206",CD93,172
2,Bibliothèque Elsa Triolet,Laurène Pain-Prado,4 rue de l'union,93000,Bobigny,"Tu,Th 15:00-19:00, We 10:00-12:00,14:00-18:00, Fr 12:00-18:00, Sa 10:00-17:00",0148952056,laurene.pain-prado@ville-bobigny.fr,,"1,2,3",,,,3,"319,321,335,111,113,203,209",CD93,34
3,Bibliothèque Emile Aillaud,Laurène Pain-Prado,60 avenue Edouard Vaillant,93000,Bobigny,"Tu 10:00-12:00,15:00-19:00, We 10:00-12:00,14:00-18:00, Fr 15:00-18:00, Sa 10:00-17:00",0148478117,laurene.pain-prado@ville-bobigny.fr,,"1,2",,,,5,"519,701",CD93,40
4,Mission Locale Mire,Lydia Chevallier,5 rue de la Gaité,93000,Bobigny,"Mo-Th 08:45-12:30,13:45-17:30; Fr 14:00-16:30",0148969989,,,"1,2",,,,1,"110,111,112,113,114,116,401,402,404,405,407,203,204,205,206,207,209,215",CD93,23
5,Bibliothèque Colonel Fabien,,118 Av du Colonel Fabien,93100,Montreuil,"Tu,Fr 15:00-18:00, We 10:00-12:00,14:00-18:00, Sa 10:00-13:00,14:00-17:00",0148576441,bibliotheques.montreuil@est-ensemble.fr,http://www.bibliotheque-montreuil.fr,1,,,,3,,CD93,166
6,Bibliothèque Daniel Renoult,,22 place Le Morillon,93100,Montreuil,"Tu,Fr 15:00-18:00, We 10:00-12:00,14:00-18:00, Sa 10:00-13:00,14:00-17:00",0148547717,bibliotheques.montreuil@est-ensemble.fr,http://www.bibliotheque-montreuil.fr,1,,,,3,,CD93,165
7,Bibliothèque de quartier Paul Éluard,,10 rue Valette,93100,Montreuil,"Tu,Fr 15:00-18:00; We 10:00-12:00,14:00-18:00; Sa 10:00-13:00,14:00-17:00",0148576656,bibliotheques.montreuil@est-ensemble.fr,http://www.bibliotheque-montreuil.fr,1,,,,8,813,CD93,164
8,Bibliothèque Robert Desnos,,14 boulevard Rouget de l'isle,93100,Montreuil,"Tu 12:00-20:00; We,Sa 10:00-18:00; Th,Fr 14:00-19:00",0148706904,bibliotheques.montreuil@est-ensemble.fr,http://www.bibliotheque-montreuil.fr,"1,2,3",,,,3,333,CD93,163
9,Café la Pêche,Lahsen El Bouhali,16 rue Pépin,93100,Montreuil,"Mo-Fr 09:00-12:00,13:45-17:30",0171862900,communication@lapechecafe.com,,1,,,,3,,CD93,76
10,Centre Social / Maison de Quartier Esperanto,Edwige Lajon,14 Allée Rolland Martin,93100,Montreuil,"Mo-Fr 09:00-12:15,14:00-18:00; Tu 14:00-18:00",0171892520,edwige.lajon@montreuil.fr,http://www.montreuil.fr/fileadmin/user_upload/Files/actualites_fichiers/2017/08_aout/Esperanto-Plaquette2017-2018-HD.pdf,"1,2,3",,,,2,"333,205,209,",CD93,70
11,Centre Social / Maison de Quartier Lounès Matoub,Xavier Acakpovi,4 6 place de la République,93100,Montreuil,"Mo-Fr 09:00-12:30,14:00-18:30; Tu 14:00-18:30; Sa 09:00-12:30",0171892509,xavier.acakpovi@montreuil.fr,http://www.montreuil.fr/fileadmin/user_upload/Files/actualites_fichiers/2017/09_septembre/L.Matoub_web.pdf,"1,2,3",,,,2,"333,205,209,",CD93,78
12,Club Informatique Montreuillois,,8 place du 14 Juillet,93100,Montreuil,Mo-Fr 15:00-18:00; Th 15:00-20:00,,,,"1,2",,,,3,"333,305,319,334,316,403,404,708,506",CD93,770
13,Maison de Quartier du Grand Air Espace 40,Omar Somi directeur,40 rue du Bel Air,93100,Montreuil,"Mo,Tu 14:00-18:15; We-Fr 09:15-12:15,14:00-18:30; Sa 14:00-18:30",0171868010,omar.somi@montreuil.fr,http://www.montreuil.fr/fileadmin/user_upload/Files/actualites_fichiers/2018/01_jan/Grand_air_jan-juin18_HD.pdf,"1,2",,,,4,"333,401,402,404,405",CD93,81
14,Centre Social la Boissière,,317 boulevard de la Baissière,93110,Rosny-sous-Bois,"Mo-Sa 09:00-12:00,13:30-19:00",0148121680,cercle.boissiere@mairie-rosny-sous-bois.fr,http://www.rosny93.fr/Centre-socioculturel-Cercle,"1,2,3",,,,1,"110,111",CD93,92
15,Centre Socioculturel Les Marnaudes,,5 rue Jacques Offenbach,93110,Rosny-sous-Bois,"Tu-Sa 09:00-12:00,14:00-19:00",0148121780,directionmarnaudes@yahoo.fr,http://www.rosny93.fr/Centre-socioculturel-Marnaudes,"1,2,3",,,,3,"333,209,111",CD93,139
16,Service Jeunesse Arthur Rimbaud,,45 rue Richard Gardebled,93110,Rosny-sous-bois,Tu-Fr 14:00-18:00; We 14:00-19:00,0148128850,cerclej@mairie-rosny-sous-bois.fr,https://www.rosnysousbois.fr/jeunes/point-information-jeunesse-pij/,"1,2",,,,2,"110,111,112,113,114,115,201,202,203,204,205,206,207,209,215,210",CD93,91
17,Bibliothèque John Lennon,Thomas Serieys,9 Av du Général Leclerc,93120,La Courneuve,"Tu 13:00-19:00; We 10:00-12:00,14:00-18:00; Th,Fr 15:00-18:00; Sa 10:00-18:00",0171863470,thomas.serieys@plainecommune.com.fr,http://www.mediatheques-plainecommune.fr/john-lennon,"1,2,3",,,,3,,CD93,47
18,Cyber-Base Emploi - Espace Mde,Animatrice Cyber-base Emploi,17 place du Pommier de Bois,93120,La Courneuve,"Mo-Th 09:00-12:00,13:30-16:30; Fr 09:30-12:30",0171863400,nadia.mnasri@plaine.commune.com.fr,http://www.ville-la-courneuve.fr/,"1,2",,,,1,"111,112,114",CD93,73
19,Espace Jeunesse Cosmonautes,,41 Centre Commercial la Tour,93120,La Courneuve,"Mo-Fr 16:00-19:00; We,Sa 14:00-19:00",0183722410,,,1,,,,3,,CD93,45
20,Espace Jeunesse Quinet,,9 rue Edgard Quinet,93120,La Courneuve,"Mo-Fr 16:00-19:00; We,Sa 14:30-19:00",0148386824,,http://www.ville-la-courneuve.fr/LC_idocs/ville_reussite_jeunesse_2012/espaces_jeunesse.php#horaires,1,,,,3,,CD93,48
21,Jade,,145 rue Rateau,93120,La Courneuve,Mo-Fr 09:00-18:00,0148365483,asso.jade@wanadoo.fr,http://www.asso-jade.fr,"1,2",,,,3,"333,335,401,402,404,405,407,408",CD93,159
22,Maison des Jeunes Guy Môquet,Hadjara Sassa,119 avenue Paul Vaillant Couturier,93120,La Courneuve,Mo 13:30-19:00; Tu-Fr 16:30-19:30; We 13:30-19:30; Sa 13:30-18:30,0148362407,espaces.multimedia@ville-la-courneuve.fr,https://espacefamille.ville-la-courneuve.fr/espacefamille91/affichage_activites.do?idActivite=53,"1,2",,,,7,"701,702,704",CD93,44
23,Maison Marcel Paul,,77 avenue de la République,93120,La Courneuve,"Mo-Fr 09:00-12:00,14:00-17:00; Tu 09:00-12:00",0143118062,,,"1,2",,,,3,"333,203,204,205,206,208,209",CD93,769
24,Maison Pour Tous Cesária Évora,Magali Chastagner,55 avenue Henri Barbusse,93120,La Courneuve,Mo-Fr 09:00-18:30; Sa 13:30-18:30,0171896610,magali.chastagner@ville-la-courneuve.fr,http://www.ville-la-courneuve.fr/LC_idocs/ville_reussite_jeunesse_2012/espaces_jeunesse.php,"1,2,3",,,,3,333,CD93,61
25,Médiathèque Aimé Césaire,Pierrick Longatte,1 Mail de l'égalité,93120,La Courneuve,"Tu,Th 14:00-20:00; We,Fr,Sa 10:00-18:00",0171863737,pierrick.longatte@plainecommune.com.fr,http://www.mediatheques-plainecommune.fr/aime-cesaire,"1,2",,,,3,"333,334,335",CD93,46
26,Point Information Jeunesse,,61 rue du Général Schramm,93120,La Courneuve,"Mo-Fr 10:00-12:00,14:00-18:00; Tu off; We 10:00-12:00,14:00-19:00; Sa 11:00-14:00",0149926075,pij@ville-la-courneuve.fr,http://www.ville-la-courneuve.fr,1,,,,4,"333,209,203,204,213",CD93,43
27,Centre Social du Londeau,,3 rue Paul Verlaine,93130,Noisy-le-Sec,"Mo-Fr 09:00-12:30,13:30-18:00; Sa 09:00-12:00",0148108231,,,1,,,,3,,CD93,65
28,Espace Info Jeunes,Laura Vautrin,15 rue de Bethisy,93130,Noisy-le-Sec,We 14:00-18:00; Th 16:30-19:00; Fr 16:00-18:00; Sa 10:00-16:30,0149426711,laura.vautrin@noisylesec.fr,,"1,2,3",,,,3,333,CD93,79
29,Médiathèque Roger Gouthier,,3 rue Jean Jaurès,93130,Noisy-le-Sec,"Tu,Th 15:00-20:00; We,Fr,Sa 10:00-18:00",0149426719,info@mediatheque-noisylesec.org,http://www.mediatheque-noisylesec.org/,"1,2,3",,,,3,"333,335",CD93,66
30,Médiathèque-Ludothèque (Annexe du Londeau),,10 rue Paul Verlaine,93130,Noisy-le-Sec,,0141711604,,https://www.noisylesec.fr/equipements-publics/annuaire-th%C3%A9matique/m%C3%A9diath%C3%A8que-ludoth%C3%A8que-du-londeau,1,,,,3,,CD93,67
31,Centre Socio-Culturel Georges Brassens,,19 avenue Henri Barbusse,93140,Bondy,"Mo-Fr 08:45-12:30,13:30-19:00; We 13:30-19:00",0171866495,,http://www.ville-bondy.fr/fileadmin/user_upload/Sante_solidarite/Centres_sociaux/Plaquette-brassens_2015-2016.pdf,"1,2",,,,3,"333,114",CD93,35
32,Espace Multimédia Olympe de Gouges,,7 avenue Maurice Benhamou,93140,Bondy,Mo-Fr 18:30-21:00; We off; Sa 14:00-20:00,0148503738,,http://www.ville-bondy.fr/fileadmin/user_upload/culture/espace-multimedia/planningBondyMultimedia.pdf,"1,2",,,,3,"333,335,401,402,403,404,405,406,407",CD93,36
33,Maison Pour Tous Complexe Jean-Claude Bouttier,Jérome Pédronono,Avenue du Maréchal Joffre,93140,Gournay-sur-Marne,"Mo-Fr 09:00-12:00,14:00-19:00; Sa 14:00-19:00",0145928184,maisonpourtous@gournay-sur-marne.fr,http://www.ville-gournay-sur-marne.fr/fr/actualite/117913/la-maison-tous-ouvre-portes,"1,2,3",,,,3,"333,401,402,404,405,407,203,204,205,206,209",CD93,60
34,Mission Locale Bondy,Sofia Hariche,29 bis rue Jules Guesde,93140,Bondy,Mo-Th 09:00-18:00; Fr 09:00-17:00,0148494005,http://www.ville-bondy.fr/sportjeunesse/la-mission-locale/,http://www.ville-bondy.fr/sportjeunesse/la-mission-locale/,"1,2",,,,1,"110,111,112,113,114,115",CD93,148
35,Bij - Bureau Information Jeunesse (Direction Jeunesse),,76 rue Victor Hugo,93150,Blanc-Mesnil,"Mo-Fr 14:00-17:30; We 09:30-12:00,14:00-17:30",0148652166,informationjeunesse@blancmesnil.fr,https://www.blancmesnil.fr/vos-services/famille-et-education/jeunesse/point-information-jeunesse,1,,,,1,114,CD93,30
36,Centre Social Chemin Notre-Dame,Roch Mafouta,26 Mail Jeanne Fontaine,93150,Blanc-Mesnil,Mo-Fr 10:00-19:00,0149477079,roch.mafouta@blancmesnil.ifac.asso.fr,https://www.blancmesnil.fr/vos-services/associations/maisons-de-quartier,"1,2,3",,,,2,,CD93,32
37,Centre Social des Tilleuls,,7 Square Maurice Audin,93150,Blanc-Mesnil,Mo-Fr 08:30-17:15; Sa 09:00-11:45,0148142850,contact@maisondestilleuls.org,http://www.maisondestilleuls.org/,"1,2,3",,,,3,"319,321,335",CD93,33
38,L'accélérateur d'entreprises,,22 avenue Albert Einstein,93150,Le Blanc-Mesnil,"Mo-Th 09:00-12:30,14:30-17:30; Fr 09:00-12:30",0155811011,plie.cool@wanadoo.fr,https://www.ville-emploi.asso.fr/structureave/p-l-i-e-du-blanc-mesnil/,"1,2",,,,3,"111,112,333,335",CD93,18
39,Maison de Quartier Jean Jaurès,,2 bis avenue Jean Jaurès,93150,Blanc-Mesnil,,0148668986,,,1,,,,3,,CD93,22
40,Médiathèque Edouard Glissant,,1 5 place de la Libération,93150,Blanc-Mesnil,"Tu,Fr 14:00-19:00; We,Sa 10:00-18:00",0148142209,mediatheque.edouardglissant@ville-blanc-mesnil.fr,http://mediatheque.blancmesnil.fr/opacwebaloes/index.aspx,1,,,,3,"401,402,404,405,407",CD93,31
41,@Telier Numerique,,36 rue de la République,93160,Noisy-le-Grand,,0149311970,atelier@ville-noisylegrand.fr,http://mediathequegeorgeswolinski.fr/,"1,2,3",,,,3,"333,335,321,519",CD93,71
42,Pimms,,11 Mail Federico Garcia Lorca,93160,Noisy-le-Grand,"Mo,We 13:30-18:00; Tu,Th,Fr 09:00-12:00,13:30-18:00; Sa 09:00-12:00",0143051889,noisy-le-grand@pimms.org,https://twitter.com/Pimmsnoisy,"1,2",,,,2,"201,202,203,204,205,206,207,209,215,210",CD93,771
43,Centre de Quartier de la Fosse Aux Fraises,,17 25 rue de la Capsulerie,93170,Bagnolet,"Mo-Fr 09:00-12:00,13:30-18:00; Sa 10:00-12:30,14:00-18:00",0143607701,centre.lafosseauxfraises@ville-bagnolet.fr,http://www.ville-bagnolet.fr/index.php/centre-de-quartier-de-la-fosse-aux-fraises.html,"1,2,3",,,,3,"333,401,404,407,408",CD93,17
44,Centre de Quartier des Coutures / Bibliothèque des Coutures,,37 rue Jules Ferry,93170,Bagnolet,"Mo-Fr 09:00-12:00,13:30-17:00",0141585540,coutures@ville-bagnolet.fr,http://www.ville-bagnolet.fr/index.php/centre-de-quartier-des-coutures.html,"1,2,3",,,,3,333,CD93,7
45,Centre de Quartier Pablo Neruda,,36 rue Pierre Et Marie Curie,93170,Bagnolet,"Mo-Fr 10:00-12:00,14:00-18:00",0149936063,ctr-neruda@ville-bagnolet.fr,http://www.ville-bagnolet.fr/index.php/centre-de-quartier-pablo-neruda.html,"1,2",,,,4,"333,401,404,407,408",CD93,10
46,Médiathèque de Bagnolet,,1 rue Marceau,93170,Bagnolet,"Tu,Fr 15:00-18:00; We,Sa 10:00-18:00; Th 13:00-18:00",0149936090,mediatheque@ville-bagnolet.fr,http://mediatheque.ville-bagnolet.fr,1,,,,3,"401,402,404,405,407",CD93,188
47,Foyer-Club Émile Guichard / Centre Médico-Social,Service Pôle séniors -Mairie,40 rue Saint Claude,93190,Livry-Gargan,,0143888141,,https://www.livry-gargan.fr/seniors/vie-sociale/le-foyer-club-emile-guichard-et-les-animations-957.html,"1,2,2",,,,2,607,CD93,190
48,Aile (Accès Internet En Libre Échange) Maison de la Vie Associative,Mourad Latrech,111 rue Danielle Casanova,93200,Saint-Denis,"Mo-Fr 09:00-12:30,13:30-18:30, We 13:30-18:30, Th 09:30-20:00",0954984028,aile93200@gmail.com,http://ville-saint-denis.fr/annuaire/2?theme=100&search=,"1,2",,,,3,"110,111,114,115,203,204,205,206,208,209,212,333,335",CD93,100
49,Association Accion Artistica,,1 Allée de l'isle Adam,93200,Saint-Denis,"Mo-Fr 09:00-12:00,14:00-18:00, Sa 09:00-12:00",0148239349,espaceneruda@free.fr,,"2,3",,,,3,"333,335,321,519,203,205,209,401",CD93,84
50,Cyber Pleyel,Amine Benhassine,9 place des Pianos,93200,Saint-Denis,"Mo-Fr 09:30-12:30,13:30-18:00; Sa 09:30-12:30,13:30-17:30",0148094268,cyberpleyel@yahoo.fr,http://cyberpleyel.free.fr/,"1,2",,,,1,"333,521,111,114",CD93,104
51,Cyber-Base Maison de la Jeunesse,,12 place de la Résistance,93200,Saint-Denis,"Mo-Sa 14:00-19:00; Tu 14:00-20:00; We,Fr 10:00-19:00",0183722092,cyberbase.st-denis@gmail.com,http://ville-saint-denis.fr/maison-de-la-jeunesse,"1,2",,,,4,"333,401,402,403,404,405,406,407",CD93,111
52,Emmaüs Connect (Connexions Solidaires),Ines Gandon,47 rue Jean Jaurès,93200,Saint-Denis,"Mo,Tu 10:00-12:00,13:00-15:00; We 14:00-16:00,18:30-20:00; Th 14:00-15:30; Fr 09:30-12:30",0180059880,cssaintdenis@emmaus-connect.org,http://emmaus-connect.org/saint-denis/,"1,2",,,,3,,CD93,170
53,Maison de Quartier de la Plaine,,5 Allée Saint Just,93200,Saint-Denis,"Mo-Fr 09:00-12:30,13:30-20:45; Sa 10:00-12:30,13:30-18:30",0183722050,maisonquartier.plaine@ville-saint-denis.fr,http://ville-saint-denis.fr/maison-de-quartier-de-la-plaine,"1,2",,,,2,"209,203,205",CD93,102
54,Maison de Quartier Floréal Saussaie-Courtille,,3 Promenade de la Basilique,93200,Saint-Denis,"Mo,Fr 09:00-12:00,13:30-20:30; Tu 09:00-12:00,13:30-21:30; We,Th 09:00-12:00,13:30-21:00; Sa 10:00-12:30,13:30-19:30",0183722060,floreal.maison.quartier@ville-saint-denis.fr,http://ville-saint-denis.fr/maison-de-quartier-flor%C3%A9al-saussaie-courtille,"1,2,3",,,,3,333,CD93,119
55,Maison de Quartier Franc Moisin Bel Air,,16 Cours du Rû de Montfort,93200,Saint-Denis,"Mo-Fr 09:00-12:30,13:30-17:30",0183722243,francmoisin.belair.maisonquartier@ville-saint-denis.fr,http://ville-saint-denis.fr/maison-de-quartier-franc-moisin-bel-air-stade-de-france,"1,2",,,,2,"203,204,205,206,207,209",CD93,180
56,Maison de Quartier Romain Rolland,,2 rue Henri Barbusse,93200,Saint-Denis,"Mo-Fr 09:00-12:30,13:30-17:30",0149337020,maisonquartier.romainrolland@ville-saint-denis.fr,http://ville-saint-denis.fr/maison-de-quartier-romain-rolland,"1,2",,,,2,"203,204,205,206,207,209,214",CD93,181
57,Maison de Quartier Sémard,,9 11 rue Emile Chrétien,93200,Saint-Denis,"Mo-Fr 09:00-12:30,13:30-19:00",0183722250,maisonquartier.semard@ville-saint-denis.fr,http://ville-saint-denis.fr/maison-de-quartier-pierre-s%C3%A9mard,"1,2",,,,3,"333,203,204,205,206,207,209,214",CD93,103
58,Médiathèque Aladin,,2 rue Henri Barbusse,93200,Saint-Denis,"Tu,Fr 15:45-18:00; We 14:00-18:00",0171863440,,http://www.mediatheques-plainecommune.fr/aladin,"1,2",,,,3,"333,334,336",CD93,87
59,Médiathèque Don Quichotte,,120 avenue du Président Wilson,93200,Saint-Denis,"Tu 16:00-19:30; We,Fr 12:00-18:00; Sa 10:00-18:00",0155934870,,http://www.mediatheques-plainecommune.fr/don-quichotte,"1,2",,,,3,333,CD93,86
60,Médiathèque du Centre Ville,,4 place de la Légion d'honneur,93200,Saint-Denis,Tu 15:30-19:30; We-Sa 10:00-18:00; Th 15:00-18:00,0149339240,,http://www.mediatheques-plainecommune.fr/centre-ville,"1,2",,,,2,"333,203,204,205,206,207,209,214",CD93,101
61,Médiathèque Gulliver,,7 rue du Plouich,93200,Saint-Denis,"Tu 15:00-19:30; We,Sa 10:00-12:30,13:30-18:00; Fr 13:30-18:00",0149713660,,http://www.mediatheques-plainecommune.fr/gulliver,"1,2",,,,3,"333,336",CD93,88
62,Médiathèque Ulysse,,37 Cours du Ru de Montfort,93200,Saint-Denis,Tu 15:00-19:30; We-Sa 11:00-18:00; Th off,0171863520,,http://www.mediatheques-plainecommune.fr/ulysse,1,,,,3,,CD93,96
63,Centre Socio-Culturel des Epinettes,,19 Allée des Epinettes,93220,Gagny,"Mo-Fr 10:00-12:30,13:30-18:00; We 09:00-12:00,13:00-17:00",0143089141,clseepinettes@orange.fr,https://www.cscdesepinettes.fr,"1,2",,,,3,"333,209",CD93,58
64,Club Amiposte Télécom,,66 rue du Chemin de Fer,93220,Gagny,Fr 18:00-20:00; Sa 14:30-17:30,0143889947,amiposte.gagny@wanadoo.fr,http://assoc.wanadoo.fr/amiposte.gagny,"1,2",,,,3,"333,401,404,407,408,519",CD93,59
65,Centre Marcel Cachin,,4 rue de la Résistance,93230,Romainville,"Mo-Fr 09:00-12:00,13:30-18:00; Sa 09:00-12:00,13:30-17:30",0171866040,ecachin@ville-romainville.fr,http://www.ville-romainville.fr/content/espace-marcel-cachin,"1,2",,,,2,209,CD93,83
66,Cyber Espace Jacques Brel,,4 rue de la Poix Verte,93230,Romainville,"Mo-Fr 09:00-12:00,13:30-18:00; Sa 09:00-12:00,13:30-17:30",0149155539,espacebrel.romainville@gmail.com,http://www.ville-romainville.fr/content/espace-jacques-brel,"1,2",,,,1,"333,111,401,404",CD93,90
67,Espace Nelson Mandela,,6 rue Pierre Brossolette,93230,Romainville,"Tu-Fr 10:00-12:00; Th 10:00-12:00,14:00-17:00",0142870830,espace.mandela@gmail.com,http://www.ville-romainville.fr/temps-libre/espaces-de-proximit%C3%A9/les-cyber-espaces,"1,2",,,,3,"333,401,402,403,404,405,406,407,334,114",CD93,89
68,Médiathèque Romain Rolland,,Rue Albert Giry,93230,Romainville,"Tu-Fr 14:00-18:00; We,Sa 10:00-18:00",0171866016,mediatheque@ville-romainville.fr,http://www.ville-romainville.fr/temps-libre/m%C3%A9diath%C3%A8que/la-m%C3%A9diath%C3%A8que-romain-rolland,"1,2",,,,3,"401,402,404,405,407,203,204,205,206,207,209,215",CD93,189
69,Point Information Jeunesse,,14 rue Veuve Aublet,93230,Romainville,"Tu,Th 13:30-18:00; We 09:00-12:00,13:30-18:00",0171866045,pij.romainville@wanadoo.fr,http://www.ville-romainville.fr/%C3%A9conomie/emplois-%E2%80%93-insertion/le-bureau-information-jeunesse-bij,"1,2",,,,1,"110,111,112,113,114,115,334,315",CD93,95
70,Centre Social Maison du Temps Libre,Farid Nichane,30 34 rue George Sand,93240,Stains,"Mo 13:30-17:30; Tu 08:30-12:30,13:30-20:00; We-Sa 10:00-12:30,13:30-18:00; Th off",0171863344,farid.nichane@stains.fr,http://www.ville-stains.fr/site/index.php?option=com_content&view=article&id=238&Itemid=152,1,,,,2,209,CD93,108
71,Cyber-Base Emploi - Espace Mde,Nicolas Pouliquen,87 avenue Aristide Briand,93240,Stains,"Mo-Fr 09:00-12:00,13:30-17:30",0171863540,nicolas.pouliquen@plainecommune.com.fr,,"1,2,3",,,,3,"333,111,110",CD93,113
72,Médiathèque du Temps Libre,Florence Belloy,30 34 rue George Sand,93240,Stains,"Tu 15:00-19:00; We,Sa 10:00-12:30,14:00-18:00; Fr 14:00-18:00",0171863354,florence.belloy@plainecommune.com.fr,,1,,,,3,,CD93,107
73,Médiathèque Louis Aragon,référent numérique pour toutes les médiathèques de Stains,4 place du Colonel Fabien,93240,Stains,,0171863442,florence.belloy@plainecommune.com.fr,,1,,,,3,,CD93,145
74,Point Information Jeunesse la Passerelle,,25 avenue Paul Vaillant Couturier,93240,Stains,"Mo,We 10:00-12:30,14:00-18:00; Th,Fr 14:00-18:00",0171863390,lapasserelle.stains@gmail.com,,1,,,,3,,CD93,109
75,Médiathèque Robert Calméjane,,118 120 Grande Rue,93250,Villemomble,"Tu,Fr 15:00-19:00; We 10:00-19:00; Sa 10:00-18:00",0148129550,mediathequecalmejane@mairie-villemomble.fr,http://www.mediatheque.villemomble.fr/,1,,,,3,,CD93,126
76,Mission Locale,Cecilia Lefebvre,121 123 avenue de Rosny,93250,Villemomble,,0148545654,,,"1,2,3",,,,2,"335,110,111,113,112",CD93,127
77,Bibliothèque André Malraux / Centre Culturel Jean-Cocteau,Stéphanie Bourson,35 place Charles de Gaulle,93260,Les Lilas,"Tu 14:00-19:30, We 10:00-13:00,14:00-19:00, Fr 14:00-18:00, Sa 10:00-13:00,14:00-17:00",0148460720,bibliotheque.leslilas@est-ensemble.fr,http://www.bibliotheque.leslilas.fr/portail/,1,,,,5,,CD93,63
78,Le Kiosque,,167 rue de Paris,93260,Les Lilas,"Mo,Th 09:30-12:30,13:30-17:30; Tu 13:30-17:30; We 09:30-12:30,13:30-19:00; Fr 13:30-17:00",0148972110,,http://www.ville-leslilas.fr/annu/15-27-21/jeunesse/le-kiosque,"1,2,3",,,,3,333,CD93,155
79,Association Jeunesse Tremblaysienne,,4 rue Paul Langevin,93290,Tremblay-en-France,,0148609338,ritakibabou@hotmail.com,,"1,2,3",,,,3,"333,335,321,519",CD93,122
80,Bibliothèque Boris Vian,,24 boulevard de l'hôtel de Ville,93290,Tremblay-en-France,"Tu 14:00-18:00, We,Sa 10:00-18:00, Fr 14:00-19:00",0149636961,mediatheque.boris-vian@tremblayenfrance.fr,https://mediathequeborisvian.tremblay-en-france.fr/numerique-1608.html,1,,,,4,"333,402,405,408,407,327",CD93,124
81,Boutique Club Emploi,Fadia Azzaoui,15 avenue Nelson Mandela,93290,Tremblay-en-France,"Mo-Th 08:45-12:30,13:30-17:00; Fr 08:45-12:30",0149634730,boutique.emploi@wanadoo.fr,http://boutiqueclubemploitremblay.e-monsite.com/pages/coordonnees.html,1,,,,3,,CD93,146
82,Bureau Information Jeunesse,,10 rue Jules Ferry,93290,Tremblay-en-France,,0141511560,information.jeunesse@ville-tremblay-en-france.fr,,"1,2,3",,,,3,"110,111,333,335,319,321",CD93,121
83,Centre Social Louise Michel,Mohamed Djeroudi directeur,4 Cours de la République,93290,Tremblay-en-France,"Tu,We 10:00-12:00; Th 14:00-16:00; Sa 09:00-12:30",0148618787,m.djeroudi@tremblayenfrance.fr,https://www.tremblay-en-france.fr/culture-sports-et-loisirs/loisirs-et-vie-de-quartier/centre-social-louise-michel-mikado-812.html,"1,2,3",,,,3,"335,319,321,519",CD93,118
84,Espace Jean-Roger Caussimon,,6 rue des Alpes,93290,Tremblay-en-France,"Mo,Tu 09:30-12:00,14:00-17:00; We,Fr 09:30-12:00; Th 09:30-12:00,14:15-17:00",0148610985,,http://www.mjccaussimon.fr,"1,2,3",,,,7,"333,335",CD93,131
85,Cyber Base Mission Locale,,62 avenue de la République,93300,Aubervilliers,"Mo-Th 09:00-12:30,13:30-17:30; Fr 09:00-12:30",0171863536,anne.pasin@plainecommune.com.fr,http://missionlocale-aubervilliers.org/,"1,2",,,,3,333,CD93,13
86,Espace Multimédia Omja,,37 39 boulevard Anatole France,93300,Aubervilliers,"Tu-Fr 16:00-20:00; We,Sa 13:30-17:30",0148348101,espacemultimediaomja@gmail.com,http://www.omja.fr/equipement/espace-multimedia/,"1,2",,,,7,"333,711,713",CD93,15
87,Maison Pour Tous Berty Albrecht,,44 46 rue Danièle Casanova,93300,Aubervilliers,"Tu 11:00-12:00; Th 11:00-12:00,14:00-18:00; Fr 11:00-12:00,14:00-16:30",0148111085,,http://www.aubervilliers.fr/Les-centres-sociaux#Maison-pour-tous-Albrecht,"1,2,3",,,,3,"333,209",CD93,3
88,Médiathèque André Breton,,1 rue Bordier,93300,Aubervilliers,"We,Fr 10:00-12:00,14:00-18:00; Th 14:00-18:00",0171863535,,http://www.mediatheques-plainecommune.fr/andre-breton,"1,2,3",,,,3,,CD93,19
89,Médiathèque Henri Michaux,,27 bis rue Lopez Et Jules Martin,93300,Aubervilliers,"Tu 14:00-19:00; We,Sa 10:00-12:00,14:00-18:00; Fr 14:00-18:00",0171863441,,http://www.mediatheques-plainecommune.fr/henri-michaux,1,,,,3,,CD93,11
90,Médiathèque Paul Eluard,Pierre-Christophe Bernard,30 rue Gaétan Lamy,93300,Aubervilliers,"Tu,Fr 16:00-18:00; We,Sa 10:00-12:00,14:00-18:00",0171863437,pierre-christophe.bernard@plainecommune.com,http://www.mediatheques-plainecommune.fr/paul-eluard,1,,,,3,,CD93,2
91,Médiathèque Saint-John Perse,Marion Giuliani,2 rue Edouard Poisson,93300,Aubervilliers,"Tu,Th 15:00-20:00; We,Fr,Sa 10:00-18:00",0171863880,marion.degueurse-Giuliani@plainecommune.fr,http://www.mediatheques-plainecommune.fr/saint-john-perse,"1,2,3",,,,3,,CD93,1
92,Association Emmaüs Solidarité Cyberespace,,40 avenue Jean Jaurès,93310,Pré-Saint-Gervais,"Mo-Fr 09:00-12:00,14:00-17:00",0148438382,cyberpsg@emmaus.asso.fr,https://www.emmaus-solidarite.org/,1,,,,2,"110,203,333,335",CD93,153
93,Bibliothèque François Mitterrand,,46 avenue Jean Jaurès,93310,Pré-Saint-Gervais,"Tu,Th 15:00-19:00, We 10:30-12:30,14:00-18:00, Fr 16:00-19:00, Sa 11:00-12:30,14:00-18:00",0148446996,bibliotheque.lepre@est-ensemble.fr,https://bibliotheque-pre-saint-gervais.fr,"1,2,3",,,,3,"321,519",CD93,82
94,Apjc Centre Social Maison des Jeunes et de la Culture,,23 Allée Etienne Dolet,93320,Les Pavillons Sous-Bois,"Mo-Fr 14:00-19:00, We 10:00-12:30,14:00-19:00",0148020779,infos@apjc.org,https://www.apjc.org/acces/,"1,2",,,,3,333,CD93,193
95,Maison de l'emploi,,2 bis Allée Henri Barbusse,93320,Les Pavillons Sous-Bois,"Mo-Fr 09:15-12:00,13:45-16:30",0148024539,maison.emploi@lespavillonssousbois.fr,http://www.les-pavillons-sous-bois.fr/Solidarite-sante/L-action-sociale/Les-structures-d-accueil-pour-l-emploi,"1,2",,,,1,"111,114,112",CD93,192
96,Bibliothèque Saint-Exupéry,,100 avenue du 8 Mai 1945,93330,Neuilly-sur-Marne,"Tu 15:00-20:00; We 10:00-12:00,14:00-19:00; Th,Fr 15:00-18:00; Sa 10:00-18:00",0156491949,mediatheque@neuillysurmarne.fr,http://www.mediatheque.neuillysurmarne.fr/,1,,,,3,,CD93,198
97,Cyberbase Neuilly-Sur-Marne,Brigitte Mondain,1 rue du 19 Mars 1962,93330,Neuilly-sur-Marne,Tu 16:00-18:00; We-Sa 14:00-18:00; Fr 16:00-19:00,0143088176,bmondain@mjcidf.org,http://www.cyberbasensm.org/,"1,2",,,,3,"333,332,606,209,204,205",CD93,151
98,Médiathèque du Raincy,Catherine Minotte,12 avenue de la Résistance,93340,Le Raincy,"Tu 15:00-19:00; We 09:30-12:00,14:00-18:00; Sa 09:30-12:00,14:00-17:00",0143819494,bibliotheque@leraincy.fr,https://www.leraincy.fr/content/article/la-mediatheque,"1,2",,,,3,335,CD93,140
99,Espace Insertion du Bourget,,24 rue Anizan Cavillon,93350,Le Bourget,"Mo-Th 09:00-12:00,13:30-17:00; Fr 09:00-12:00,13:30-16:00",0148388284,,http://www.le-bourget.fr/Espace-Insertion.html#.WpUWF1LAM_g,"1,2",,,,1,"111,333,205,203,204,209,213",CD93,182
100,Médiathèque le Point d'interrogation,,1 Allée André Cadot,93350,Le Bourget,"Tu,Fr 14:00-19:00; We,Sa 09:30-12:30,14:00-19:00; Th 14:00-18:00",0148388228,,http://www.le-bourget.fr/Mediatheque-Le-Point-d-Interrogation.html#.WoP9VFLAM_g,1,,,,7,"710,711,708,704,701,702",CD93,168
101,Bibliothèque Guy de Maupassant,,11 rue du Général de Gaulle,93360,Neuilly-Plaisance,"Tu 15:00-18:30; We 10:00-12:00,14:00-18:30; Th 16:00-18:30; Fr 10:00-18:30",0143003030,,http://www.mairie-neuillyplaisance.com,"1,2",,,,4,"333,401,404,407,506",CD93,178
102,Service Emploi et Projet de Ville,,30 rue des Cahouettes,93360,Neuilly-Plaisance,"Mo-Fr 08:30-12:00,13:30-17:00",0143006868,,http://www.mairie-neuillyplaisance.com,"1,2",,,,1,"110,111,112,113,114,115",CD93,179
103,Espace J,,63 avenue Jean Jaurès,93370,Montfermeil,Mo-Fr 16:00-19:00; We 14:00-19:00,0145096400,espacej@ville-montfermeil.fr,http://espacejmag-espacej.blogspot.fr/,"1,2",,,,3,"333,401,402,403,404,405,406,407,702,704",CD93,75
104,Arobase Espace Public Multimédia,Jean-Yves Cers,124 boulevard Charles de Gaulle,93380,Pierrefitte-sur-Seine,"We,Sa 10:00-13:00,14:00-18:00, Th 14:00-18:00, Fr 14:00-20:00",0172093436,arobase@pierrefitte93.fr,http://epn.pierrefitte93.fr/,"1,2",,,,3,"333,335,319,321,401,404,408",CD93,94
105,Centre Social Ambroise Croizat,Mohamed Akem directeur,58 rue Nungesser Et Coli,93380,Pierrefitte-sur-Seine,"Mo 13:30-19:00; Tu-Fr 09:00-12:00,13:30-19:00; We 13:30-18:30; Sa 09:00-12:00",0172093535,,http://www.mairie-pierrefitte93.fr,"1,2,3",,,,3,333,CD93,99
106,Centre Social Maroc Chatenay,Amadou Cisse (Directeur),104 rue Jules Chatenay,93380,Pierrefitte-sur-Seine,"Mo 10:00-12:00,14:00-19:00; Tu 09:30-12:00,14:00-18:30; We,Th 14:00-19:00; Fr 09:30-12:00,14:00-18:00",0149511803,,http://www.mairie-pierrefitte93.fr/Loisirs/PDF/Centre-social-Maroc-Chatenay-Poetes-2016-2017,"1,2,3",,,,3,,CD93,98
107,Cyber-Base Emploi - Espace Mde,Alicia Lim,8 avenue Lénine,93380,Pierrefitte-sur-Seine,"Mo-Fr 09:00-12:00,14:00-16:30",0171863530,alicia.lim@plainecommune.fr,,"1,2",,,,1,"203,114,111,115,334,317,315,514",CD93,93
108,Médiathèque Flora Tristan,Herman Malongo,43 boulevard Jean Mermoz,93380,Pierrefitte-sur-Seine,"Mo-Sa 10:00-18:00; Tu,Th 15:00-20:00",0171863800,herman.malongo@plainecommune.com.fr,http://www.mediatheques-plainecommune.fr/,"1,2,3",,,,3,"333,401,402,404,405,407,203,204,205,206,207,209,215",CD93,152
109,Point Information Jeunesse,David Romany,19 rue de Paris,93380,Pierrefitte-sur-Seine,"Mo,Th 09:30-12:00; Tu 14:00-17:30; We,Fr 09:30-12:30,14:00-17:30",0172093590,,https://www.mairie-pierrefitte93.fr/,1,,,,3,,CD93,177
110,Centre Social du Bas Clichy l'orange Bleue,Chargée d'accueil,22 Allée Frédéric Ladrette,93390,Clichy-sous-Bois,"Mo-Fr 09:00-12:00,13:30-17:30; Tu 13:30-17:30",0145097730,csorangebleue@orange.fr,http://www.clichy-sous-bois.fr/Associations/Annuaire-des-associations/Centre-Social-de-l-Orange-Bleue,"1,2",,,,3,"333,401,404,407,408",CD93,25
111,Defi (Direction Emploi Formation Insertion),Eric BOURGEOIS Coordonnateur Formateur Numérique Informatique,4 bis Allée Romain Rolland,93390,Clichy-sous-Bois,"Tu-Sa 09:00-12:00,14:00-16:30",0141703295,eric.bourgeois@grandparisgrandest.fr,,"1,2",,,,3,"333,335",CD93,24
112,Point Information Jeunesse,,105 Allée de la Chapelle,93390,Clichy-sous-Bois,"Mo-Fr 09:00-12:00,14:00-18:00; Tu,Th 14:00-18:00",0143888474,pij@clichysousbois.fr,http://www.clichy-sous-bois.fr/Economie-et-emploi/Emploi-formation-insertion,1,,,,1,"110,111,113,201,202,203,204,205,206,207,209,215,210",CD93,26
113,Bibliothèque Glarner,Noémie Cunow,43 avenue du Capitaine Glarner,93400,Saint-Ouen,"Tu,Fr 16:00-19:00, We 10:00-13:00,14:00-18:00, Sa 10:00-13:00,14:00-17:00",0171863474,,http://www.mediatheques-plainecommune.fr/glarner,1,,,,3,,CD93,120
114,Bibliothèque Lucie Aubrac,Noémie Cunow,15 rue Eugène Berthoud,93400,Saint-Ouen,"Tu,Fr 16:00-19:00; We,Sa 10:00-12:30,14:00-18:00",0171863477,,http://www.mediatheques-plainecommune.fr/lucie-aubrac,"1,2",,,,3,333,CD93,114
115,Centre de Culture Scientifique Atlas,,7 rue de l'union,93400,Saint-Ouen,"Mo-Fr 09:00-12:00,13:30-18:00",0171866340,,https://atlas93.wordpress.com/,1,,,,3,,CD93,105
116,Compétences Emploi,,10 avenue Salvador Allende,93400,Sevran,Mo-Fr 09:00-12:00,0141521396,poleaccueil@competencesemploi.com,https://www.ville-sevran.fr/emploi-formation,"1,2",,,,1,"111,114,115,113,112,110",CD93,123
117,Maison de Quartier du Landy,,37 rue du Landy,93400,Saint-Ouen,"Mo-Fr 09:00-12:30,14:00-17:30; Th 14:00-17:30",0149457773,jluder@mairie-saint-ouen.fr,http://www.saint-ouen.fr/services-infos-pratiques/sante-et-action-sociale/136-maisons-de-quartier.html,"1,2",,,,3,319,CD93,112
118,Maison de Quartier Marcel Paul,Pierre Bouhelier directeur,12 rue Charles Conrad,93400,Sevran,"Mo-Fr 09:00-12:00,13:30-18:00",0141524840,sdauphin@sevrangrandparis.fr,https://www.ville-sevran.fr/maison-de-quartier-marcel-paul-beaudottes,"1,2,3",,,,3,"333,335,203,204,205,206,207,209,214",CD93,117
119,Maison de Quartier Pasteur,Jacques Luder,6 rue Pasteur,93400,Saint-Ouen,"Mo,We 09:00-12:00,13:30-17:30; Tu,Fr 09:00-12:00,13:30-20:00; Th 13:30-17:30",0141663620,jluder@mairie-saint-ouen.fr,,"1,2",,,,3,"333,401,402,404,405,407,335",CD93,116
120,Médiathèque Persépolis,Noémie Cunow,4 avenue Gabriel Péri,93400,Saint-Ouen,"Tu,Fr 16:00-20:00; We,Sa 10:00-19:00",0171863612,,http://www.mediatheques-plainecommune.fr/Pers%C3%A9polis,"1,2",,,,2,"111,333,335",CD93,154
121,Pimms (Point Information Mediation Multi-Services),,4 Allée la Pérouse,93400,Sevran,"Mo 13:30-17:00; Tu-Fr 09:30-12:30,13:30-18:00",0182370180,sevran@pimms.org,https://www.maisondeservicesaupublic.fr/content/pimms-de-sevran,1,,,,3,"203,209,212,208",CD93,144
122,Service Initiative Jeunesse,,42 avenue Gabriel Péri,93400,Saint-Ouen,"Mo-Fr 08:30-12:00,13:00-17:30; Sa 08:30-12:00",0149481432,initiativesjeune@mairie-saint-ouen.fr,http://www.saint-ouen.fr/services-infos-pratiques/education/jeunesse/244-service-initiatives-jeunes.html,"1,2",,,,1,"110,111,112,113,114,115,201,202,203,204,205,206,207,209,215,210",CD93,115
123,Maison du Temps Libre / Bibliothèque Municipal,,78 rue de Meaux,93410,Vaujours,"Tu,Fr 13:45-18:00; We 09:45-11:45,13:45-18:30; Sa 09:45-11:45,13:45-18:00",0149633913,bibliotheque@ville-vaujours.fr,http://www.vaujours.fr/Bibliotheque,"1,2",,,,3,333,CD93,132
124,Relais Informations Jeunesse,,6 Allée Jules Ferry,93410,Vaujours,"Mo 13:30-17:00; Tu-Fr 08:30-12:00,13:30-17:00",0148611023,contact@ville-vaujours.fr,http://www.vaujours.fr/Relais-d-Information-Jeunesse,"1,2",,,,1,"110,111,112,113,114,115,201,202,203,204,205,206,207,209,215,210",CD93,125
125,Annexe Jacques Prévert (Centre Social André Malraux),,17 rue Jacques Prévert,93420,Villepinte,"Mo-Sa 09:00-12:00,14:00-18:00",0143838958,espacefamilles.csam@orange.fr,http://www.csam-villepinte.org/,1,,,,2,"203,204,205,206,208,209,212",CD93,196
126,Antenne François Mauriac (Centre Social André Malraux),,3 rue François Mauriac,93420,Villepinte,"Mo-Sa 09:00-12:00,14:00-18:00",0143100867,csamalraux@wanadoo.fr,http://www.csam-villepinte.org/,1,,,,7,"333,701 708",CD93,195
127,Centre Social André Malraux,Sébastien Mestre,1 avenue André Malraux,93420,Villepinte,"Mo-Th 13:30-16:30; Tu 09:30-11:30,13:30-19:30",0143838958,csamalraux@wanadoo.fr,http://www.csam-villepinte.org/,"1,2,3",,,,3,"333,335,319,321,401,404,407,205,209,708,709,710,711",CD93,133
128,Médiathèque - Centre Culturel Joseph Kessel,,251 boulevard Robert Ballanger,93420,Villepinte,Tu-Fr 15:00-19:00; We 10:00-19:00; Sa 10:00-18:00,0155859633,mediatheque@ville-villepinte.fr,http://mediatheque.centreculturel-villepinte.fr/,"1,2",,,,3,"333,401,402,404,405,407",CD93,194
129,Centre Socio-Culturel Clara Zetkin,,1 avenue Jean Jaurès,93430,Villetaneuse,"Tu 09:30-12:00,13:30-18:00; We,Th 09:30-12:00,13:30-20:00; Fr 09:30-12:00,13:30-16:00",0149989110,,http://www.mairie-villetaneuse.fr,"1,2",,,,3,"333,335",CD93,128
130,Cyber'base Emploi (Espace Mde),David Zennouche,2 rue de l'université,93430,Villetaneuse,"Mo,Th 08:45-12:30,13:45-17:00",0171863600,david.zennouche@plainecommune.com.fr,http://www.mairie-villetaneuse.fr/detail-acteur?id_acteur=134,"1,2",,,,1,"111,203",CD93,137
131,Médiathèque Jean Renaudie,,52 rue Roger Salengro,93430,Villetaneuse,"Tu 16:00-19:00; We,Sa 10:00-13:00,14:00-18:00; Fr 16:00-18:00",0155994882,,,1,,,,3,,CD93,136
132,Médiathèque Max-Paul Fouchet,,7 rue Paul Langevin,93430,Villetaneuse,Tu 16:00-19:00; We-Sa 14:00-18:00; Th off,0171863428,,http://www.mediatheques-plainecommune.fr/max-pol-fouchet,"1,2,3",,,,3,,CD93,135
133,Médiathèque Anne Frank,,8 avenue Ambroise Croizat,93440,Dugny,"Tu 14:00-18:00; We,Sa 10:00-12:30,14:00-18:00; Fr 14:00-19:00",0149341154,,http://www.ville-dugny.fr/vie-culturelle/la-mediatheque-anne-frank,1,,,,3,,CD93,169
134,Maison de l'emploi,Maimouna Dia,2 bis Quai de la Marine,93450,L'Ile-Saint-Denis,"Mo-Th 09:00-12:30,13:30-17:30; Fr 09:00-12:30",0171863150,maimouna.dia@plainecommune.com.fr,http://www.lile-saint-denis.fr/fr/information/82654/la-maison-emploi,"1,2",,,,1,"111,114,112",CD93,74
135,Maison des Initiatives et de la Citoyenneté,Hannan Louraoui,1 bis rue Méchin,93450,L'Ile-Saint-Denis,"Tu,Th 09:00-12:00,13:30-18:00; We 10:00-12:00,13:30-19:00; Fr 13:30-19:00; Sa 10:00-12:00,14:00-18:00",0141681984,mic@lile-saint-denis.fr,,"1,2",,,,3,"209,207,324",CD93,85
136,Médiathèque Elsa Triolet,Yvette NzonziMaimouna Sall,1 ter rue Méchin,93450,L'Ile-Saint-Denis,"Tu 15:00-19:30; We,Sa 10:00-18:00; Th,Fr 15:00-18:00",0171863687,yvette.nzonzi@plainecommune.com.fr,http://www.mediatheques-plainecommune.fr/elsa-triolet,1,,,,3,"333,401,402,404,405,407,203,204,205,206,207,209,214",CD93,72
137,Bibliothèque Elsa Triolet,,102 avenue Jean Lolive,93500,Pantin,"Tu 13:00-19:00, We 10:00-12:00,14:00-18:00, Fr 10:00-19:00, Sa 10:00-13:00,14:00-18:00",0183745840,bibliotheques.pantin@est-ensemble.fr,https://www.est-ensemble.fr/bibliotheques-de-pantin,1,,,,4,"401,402,404,405,407,408",CD93,68
138,Bibliothèque Jules Verne,,73 avenue Edouard Vaillant,93500,Pantin,"Tu 13:00-19:00; We 10:00-12:00,14:00-18:00; Fr 13:00-19:00; Sa 10:00-13:00,14:00-18:00",0183745970,bibliotheques.pantin@est-ensemble.fr,https://www.est-ensemble.fr/bibliotheques-de-pantin,1,,,,4,"333,401,404,407,506",CD93,69
139,Le Lab',J. Sassano,7 9 avenue Edouard Vaillant,93500,Pantin,Mo-Fr 14:00-18:00; We 12:00-20:00; Th off,0149154809,j.sassano@ville-pantin.fr,,1,,,,7,"401,402,404,405,407,408,604,705,707",CD93,80
140,Maison de Quartier des Courtillères / Bibliothèque Romain Rolland,,1 avenue Aimé Césaire,93500,Pantin,"Tu,Fr 13:00-19:00; We 10:00-12:00,14:00-18:00; Sa 10:00-13:00,14:00-17:00",0149153720,bibliotheques.pantin@est-ensemble.fr,http://www.ville-pantin.fr/maison_de_quartier_des_courtillieres.html,"1,2,3",,,,6,,CD93,183
141,Maison de Quartier des Quatre-Chemins,,42 avenue Édouard Vaillant,93500,Pantin,"Mo-Th 09:00-12:30,13:30-17:30; Fr 13:30-17:30",0149153910,,http://www.ville-pantin.fr/maison_de_quartier_des_quatre_chemins.html,"1,2,3",,,,3,214,CD93,186
142,Maison de Quartier du Haut-Pantin,,42 rue des Pommiers,93500,Pantin,"Mo-Th 09:00-12:30,13:30-17:00; Fr 13:30-17:00",0149154524,,http://www.ville-pantin.fr/maison_de_quartier_du_haut_pantin.html,1,,,,3,214,CD93,185
143,Maison de Quartier Mairie-Ourcq,,12 rue Scandicci,93500,Pantin,"Mo-Th 09:00-12:30,14:00-18:00; Fr 14:00-18:00",0149157000,mdqmairieourcq@ville-pantin.fr,http://www.ville-pantin.fr/maison_de_quartier_mairie_ourcq.html,"1,2,3",,,,2,214,CD93,184
144,Bibliothèque Alphonse Daudet,Thomas Fourmeux coordinateur réseau bibliothèques,23 avenue Henri Simon,93600,Aulnay-sous-Bois,"Tu 14:00-18:00, We 10:00-12:30,13:30-18:00, Fr 14:00-19:00, Sa 10:00-12:30,13:30-17:30",0148669880,tfourmeux@aulnay-sous-bois.com,http://reseaudesbibliotheques.aulnay-sous-bois.fr,"1,2",,,,5,"519,601,602",CD93,142
145,Bibliothèque Dumont,Thomas Fourmeux,12 boulevard Galliéni,93600,Aulnay-sous-Bois,"Tu 14:00-19:00, We 10:00-12:30,13:30-18:00, Sa 14:00-18:00, Su 10:00-17:30",0148794189,tfourmeux@aulnay-sous-bois.com,http://reseaudesbibliotheques.aulnay-sous-bois.fr,"1,2",,,,3,"333,335,205",CD93,147
146,Bureau Information Jeunesse,Layla Nakhili,10 rue Roger Contensin,93600,Aulnay-sous-Bois,"Mo,Th 13:30-17:30; Tu,We,Fr 10:00-12:00,13:30-17:30",0148796334,bij@aulnay-sous-bois.com,http://www.aulnay-sous-bois.fr/services-municipaux/enfance-jeunesse/jeunesse/jeunesse/,1,,,,3,,CD93,8
147,Centre Social Albatros,"Mourad HAOUACH, directeur",23 Allée de la Bourdonnais,93600,Aulnay-sous-Bois,Fr 09:30-11:30,0148790760,albatros@asso-acsa.fr,,"1,2,3",,,,3,"333,335,319,321,401,404,407,205,209",CD93,6
148,Centre Social Espace Gros Saule,"Ikram El Achaoui, médiatrice numérique",4 rue du Dr Claude Bernard,93600,Aulnay-sous-Bois,,0148796308,i.elachaoui@asso-acsa.fr,,"1,2",,,,3,"333,401,404,407,408",CD93,141
149,Centre Social Les Trois Quartiers,,4 Allée d'oslo,93600,Aulnay-sous-Bois,,0148698721,3quartiers@asso-acsa.fr,,1,,,,3,,CD93,21
150,Centre Social Mitry-Ambourget,Madame Abdoulaye,19 21 rue du 8 Mai 1945,93600,Aulnay-sous-Bois,"Mo-Fr 09:00-12:00,13:30-17:30",0633270169,d.abdoulaye@asso-acsa.fr,,"1,2",,,,2,"203,205,209",CD93,14
151,La Fabrique Numérique,,42 rue du 14 Juillet,93600,Aulnay-sous-Bois,Tu 09:00-11:30; We 14:00-18:00; Sa 10:00-18:00,0158039307,,https://www.ecologique-solidaire.gouv.fr/fabrique-numerique-lincubateur-services-numeriques-du-pole-ministeriel,"1,2",,,,7,"712,333,335",CD93,174
152,Médi@Bus,,12 rue de Sevran,93600,Aulnay-sous-Bois,We 09:45-12:30,,,,"1,2",,,,2,"202,203,204,205,207",CD93,171
153,Médi@Bus,,16 allée Circulaire,93600,Aulnay-sous-Bois,Tu 14:30-17:15,,,,"1,2",,,,2,"202,203,204,205,208",CD93,173
154,Bij -Bureau Information Jeunesse du Centre Ville,Roselyne Bordes,157 Cité Paul Bert,93700,Drancy,"Mo-Th 09:00-12:00,13:30-17:30; Fr 09:00-12:00",0148965110,roselyne-bordes@drancy.fr,http://www.drancy.fr,"1,2",,,,3,"111,315,317,334,203,514",CD93,187
155,Bureau Information Jeunesse Delacroix,,23 25 rue A. Schweitzer,93700,Drancy,"Tu,Th 10:00-17:00; Fr 10:00-13:00",0148963939,bij@drancy.fr,http://www.drancy.net/index.php/Jeunes?idpage=76&idmetacontenu=160,"1,2",,,,3,"315,317,334,203,514",CD93,27
156,Centre Social Adept,Ariane Koblik,37 rue Voltaire,93700,Drancy,Mo-Fr 14:00-17:00,0148312021,secretariat@adept-asso.fr,http://adept93.wixsite.com/adept-asso,"1,2,3",,,,3,307,CD93,138
157,Centre Social Municipal,Moustafa Hamoud,8 rue Pierre Semard,93700,Drancy,"Mo-Fr 09:00-12:00,13:30-18:00",0148964515,moustafa-hamoud@drancy.fr,http://www.drancy.net/index.php/Centre-social-municipal?idpage=272&afficheMenuContextuel=true,"1,2",,,,3,333,CD93,37
158,Médiathèque Georges Brassens,Angélique Tosello,65 avenue Marceau,93700,Drancy,14:00-19:00; We 10:00-19:00; Sa 10:00-18:00,0148964567,angelique-tosello@drancy.fr,http://mediatheques.drancydugnylebourget.fr/PORTAIL/mediatheque-georges-brassens.aspx,"1,2",,,,3,"333,335",CD93,143
159,Bibliothèque Albert Camus,Anne-Marie Poli,11 rue Félix Merlin,93800,Epinay-sur-Seine,"Tu 15:00-19:30, We 10:00-12:00,14:00-18:00, Fr 15:00-18:00, Sa 10:00-18:00",0148417029,anne-marie.poli@plainecommune.com.fr,http://www.mediatheques-plainecommune.fr/albert-camus,"1,2",,,,5,519,CD93,150
160,Centre Socio-Culturel des Econdeaux,,4 avenue Léon Blum,93800,Epinay-sur-Seine,"Mo-Th 09:00-12:00,13:30-19:00; Fr 13:30-19:00",0148265011,csc.econdeaux@epinay-sur-seine.fr,http://www.epinay-sur-seine.fr/guide_csc_2015.pdf,1,,,,3,,CD93,50
161,Centre Socio-Culturel du Centre,nathalie.vilocy@epinay-sur-seine.fr,1 rue de Paris,93800,Epinay-sur-Seine,,0148261021,,,"1,2,3",,,,2,"209,203,204,206",CD93,772
162,Centre Socio-Culturel Nelson Mandela,,64 avenue de la Marne,93800,Epinay-sur-Seine,Fr 18:00-19:30,0149719935,csc.presles@epinay-sur-seine.fr,http://www.epinay-sur-seine.fr/l_espace_nelson_mandela_ouvre_ses_portes.html,"1,2",,,,3,333,CD93,42
163,Centre Socioculturel Félix Merlin,,67 rue Félix Merlin,93800,Epinay-sur-Seine,"Mo-Th 09:00-12:00,13:30-19:00; Fr 13:30-19:00",0148419639,csc.f.merlin@epinay-sur-seine.fr,http://www.epinay-sur-seine.fr/guide_csc_2015.pdf,"1,2,3",,,,1,"333,114,111",CD93,191
164,Club Sénior,,15 avenue de la République,93800,Epinay-sur-Seine,Mo-Fr 13:30-17:30,0158346998,,,"1,2",,,,3,,CD93,199
165,Cyber-Base Emploi - Espace Mde,Jean-Pierre Nonga,32 34 avenue Salvador Allende,93800,Epinay-sur-Seine,"Mo-Th 09:30-12:00,13:30-17:00",0171863810,mde.epinay@plainecommune.com.fr,,"1,2",,,,3,"114,111,333",CD93,28
166,Espace Info Jeunes,Abbes Benazzouz,33 rue de Paris,93800,Epinay-sur-Seine,"Mo,We 10:00-12:30,13:30-19:00; Tu,Fr 13:30-19:00; Th 13:30-18:00",0149713500,pij@epinay-sur-seine.fr,http://www.epinay-sur-seine.fr/les_espaces_jeunesse_et_ressources.html,1,,,,3,"402,403,405,406",CD93,52
167,Espace Jeunesse du Centre-Ville,Hannan Ait-Hamid,5 rue Dumas,93800,Epinay-sur-Seine,"Tu-Fr 13:30-18:45; We,Sa 15:00-18:45",0148214102,jeunesse.centreville@epinay-sur-seine.fr,,"1,2",,,,3,,CD93,54
168,Espace Jeunesse Econdeaux,Latifa Kassem,Parc de la Chevrette,93800,Epinay-sur-Seine,"Mo 14:30-19:00; Tu,Th 10:00-12:30,13:30-19:00; We 14:30-20:00; Fr 10:00-12:30,13:30-20:00",0149710219,,,"1,2,3",,,,2,,CD93,53
169,Espace Jeunesse Orgemont,Hannan Aït Hamid,31 rue de Marseille,93800,Epinay-sur-Seine,"Tu-Fr 16:30-18:45; We,Sa 15:00-18:45",0148415007,jeunesse.orgemont@epinay-sur-seine.fr,,"1,2,3",,,,2,"335,319,321,322",CD93,57
170,Forma Web,Nicolas Bousquet,56 avenue de la Marne,93800,Epinay-sur-Seine,"Mo-Fr 16:30-20:30; We,Sa 14:00-20:00",,nicolasbousquet@format-web.org,,"1,2",,,,5,"333,519,715,712",CD93,176
171,Médiathèque Colette,Francis Delatour,49 rue de Paris,93800,Epinay-sur-Seine,"Tu,Th 15:00-19:30; We,Fr,Sa 10:00-18:00",0171863500,antoine.boisset@plainecommune.fr,http://www.mediatheques-plainecommune.fr/colette,"1,2",,,,3,333,CD93,56
172,Médiathèque Jules Vallès Maison du Théâtre et de la Danse,,75 avenue de la Marne,93800,Epinay-sur-Seine,"Tu,Fr 16:00-18:00; We,Sa 10:00-12:00,14:00-18:00",0171863891,,http://www.mediatheques-plainecommune.fr/jules-valles,1,,,,3,,CD93,41
173,Sfmad,Geneviève Nda,27 rue Félix Merlin,93800,Epinay-sur-Seine,,,sfm.ad@sfmad.fr,,"1,2",,,,3,"110,111,112,113,114,115,333,335,334,601,602,604",CD93,774
174,Accueil Emploi 26 Ans,,137 bis avenue du General Leclerc,94700,Maisons-Alfort,"Mo-Fr 09:00-12:00,14:00-17:00; Th 09:00-12:00",0143789500,,,"1,2",,,,1,"110,111,112,113,114,115",CD94,
175,Aef 94 Association,,111 rue Paul Hochart,94240,L'Haÿ-les-Roses,"Mo-Fr 09:00-12:30,13:30-17:00",0146861269,accueil@aef94.fr,,"1,2",,,,3,"332,333,334,335,336,337",CD94,
176,Association Fontaine A Mots,,3 rue des Ormes,94120,Fontenay-sous-Bois,"Mo-Th 09:30-12:00,14:00-17:00; Fr 09:30-12:00,14:00-15:45",0148764969,fontaineamots@orange.fr,,"1,2",,,,3,"332,333,334,335,336,337",CD94,
177,Association Les Quatres Saisons,,45 bis avenue Gabriel Peri,94170,Le Perreux-sur-Marne,Mo 10:30-12:30,0960535101,,,"1,2",,,,3,"332,333,334,335,336,337,502,505,509,517,518,520,525,",CD94,
178,Association Alef,,14-16 rue Germain Pinson,94400,Vitry-sur-Seine,"Mo-Th 09:00-12:00,14:00-17:00; We,Fr 09:00-12:00",0147180673,alef.accueilplus@orange.fr,www.vitry94.fr,"1,2",,,,2,"332,333,334,335,336,337,203,204,205,208,209,212,214",CD94,
179,Bibliotheque Anatole France,,51 rue du General de Gaulle,94290,Villeneuve-le-Roi,"Tu,Fr 10:00-12:30,16:00-18:00; We,Sa 10:00-12:00,14:00-18:00",0149619230,bibvlr.villeneuve@ville-villeneuve-le-roi.fr,,"1,2",,,,3,"332,333,334,335,336,337,203,204,205,208,209,212,214,724",CD94,
180,Bibliotheque Cavanna,,36 boulevard Gallieni,94130,Nogent-Sur-Marne,Tu-Sa 10:00-18:00; We 10:00-19:00; Fr 14:00-19:00,0148731462,bibliotheque@ville-nogentsurmarne.fr,www.bibliotheque-nogentsurmarne.fr,"1,2",,,,3,"332,333,334,335,336,337,203,204,205,208,209,212,214,724",CD94,
181,Bibliotheque Centrale,,11 rue Camille Desmoulins,94230,Cachan,"Tu,Fr 14:00-18:00; We 10:00-13:00,14:00-18:00; Sa 10:00-18:00",0149696160,,bibliotheque.ville-cachan.fr,"1,2",,,,3,"332,333,334,335,336,337,203,204,205,208,209,212,214,724",CD94,
182,Bibliotheque Espace Julien Duranton,,Place Paul Vaillant Couturier,94460,Valenton,"Tu 16:00-18:00; We,Sa 10:00-12:00,14:00-17:00; Fr 14:00-18:00",0143863781,,www.biblio.valenton.fr,"1,2",,,,3,"332,333,334,335,336,337,203,204,205,208,209,212,214,724",CD94,
183,Bibliotheque Gabriel Bourdin,,26 rue Maurice Tenine,94260,Fresnes,"Mo,Th 13:00-19:00; Tu,We 10:00-12:30,13:30-19:00; Fr 10:00-17:00",0178682710,secretariat.biblio@fresnes.fr,bm.fresnes94.fr,"1,2",,,,3,"332,333,334,335,336,337,203,204,205,208,209,212,214,724",CD94,
184,Bibliotheque Georges Sand,,21 rue Henri Thirard,94240,L'Haÿ-les-Roses,"Tu-Fr 14:00-18:00; We,Sa 10:00-13:00,14:00-18:00",0146645255,bibliotheque@vill-lhay94.fr,bibliotheque.lhaylesroses.fr,"1,2",,,,3,"332,333,334,335,336,337,203,204,205,208,209,212,214,724",CD94,
185,Bibliotheque la Plaine,,1 Allee Pierre de Montreuil,94230,Cachan,"Mo 14:30-19:30; Tu-Fr 09:30-12:00,14:00-19:30; Sa 14:00-18:00",0149696010,scsplainedirection@gmail.com,www.agescc.fr,"1,2",,,,3,"332,333,334,335,336,337,203,204,205,208,209,212,214,724",CD94,
186,Bibliotheque Lamartine,,4 Square Lamartine,94230,Cachan,"Tu,Fr 16:00-18:00; We 10:00-13:00,14:00-18:00; Sa 10:00-13:00",0149696115,,biblioyheque.ville-cachan.fr,"1,2",,,,3,"332,333,334,335,336,337,203,204,205,208,209,212,214,724",CD94,
187,Bibliotheque Nelson Mandela,,26-34 avenue Maximilien Robespierre,94400,Vitry-sur-Seine,"Mo,Fr 14:00-19:00; Tu 12:00-19:00; We,Sa 10:00-12:30,14:00-18:00",0147185890,contact@bm-vitry94.fr,www;bm-vitry94.fr,"1,2",,,,3,"332,333,334,335,336,337,203,204,205,208,209,212,214,724",CD94,
188,Bibliothèque Centrale,,,,Cachan,,,,,1,,,,3,,CD94,
189,Bibliotheque de Quartier du Chaperon Vert,,Place Marcel Cachin,94250,Gentilly,"We 10:00-13:00,16:00-18:30; Fr 16:00-18:30; Sa 10:00-13:00",0149121901,,,"1,2",,,,3,"332,333,334,335,336,337,203,204,205,208,209,212,214,724",CD94,
190,Bibliothèque la Plaine,,,,Cachan,,,,,1,,,,3,,CD94,
191,Bibliothèque Lamartine,,,,Cachan,,,,,1,,,,3,,CD94,
192,Bij Bureau Info Jeunesse 16-25 Ans,,6 rue de l'eglise,94350,Villiers-sur-Marne,"Mo-Fr 10:00-12:00,14:00-18:00",0149413866,information.jeunesse@mairie-villiers94.com,,"1,2",,,,2,"203,204,205,208,209,212,214",CD94,
193,Bureau Info Jeunesse Centre Andre Dassibat,,7 rue Francois Mauriac,94000,Créteil,"Mo-Fr 09:30-12:30,13:30-18:00",0142077655,,,"1,2",,,,3,"332,333,334,335,336,337",CD94,
194,Bureau Info Jeunesse 11 - 25 Ans,,6 bis avenue de la Republique,94700,Maisons-Alfort,"Mo 14:00-19:00; Tu-Fr 09:00-12:30,14:00-18:00",0149778038,info.j@bij-maisons-alfort.com,www.bij-maisons-alfort.com,"1,2",,,,1,"110,111,112,113,114,115",CD94,
195,Centre Administratif,,7 avenue Adrien Raynal,94310,Orly,"Mo,Fr 08:45-12:30; Th 14:00-17:30; Sa 08:45-11:45",0148902000,guichetunique@mairie-orly.fr,www.mediatheque.mairie-orly.fr,"1,2",,,,2,"203,204,205,208,209,212,214",CD94,
196,Centre d'animation,,,,Le Kremlin-Bicêtre,,,,,1,,,,3,,CD94,
197,Centre Social Balzac,,7 rue Olympe de Gouges,94400,Vitry-sur-Seine,Tu 14:00-17:00,0146810036,csbalzac-vitry@wanadoo.fr,balzac-vitry.centres-sociaux.fr,"1,2",,,,2,"110,111,112,113,114,115,203,204,205,208,209,212,214,332,333,334,335,336,337,401,404,407,408,601,604,605,606",CD94,
198,Centre Social des Portes du Midi,,13 rue Constant Coquelin,94400,Vitry-sur-Seine,"Mo-Fr 09:30-12:30,14:00-17:30; We 14:00-17:30",0146803296,gonzalo.guzman@oaronge.fr,,"1,2",,,,2,"110,111,112,113,114,115,203,204,205,208,209,212,214,332,333,334,335,336,337,401,404,407,408,601,604,605,606",CD94,
199,Centre Social Espace Les Monis ( Association ),,6 avenue de la Commune de Paris,94400,Vitry-sur-Seine,Mo-Fr 09:30-18:00,0146802193,asso@espacelesmonis.fr,www.espacelesmonis.fr,"1,2",,,,2,"110,111,112,113,114,115,203,204,205,208,209,212,214,332,333,334,335,336,337,401,404,407,408,601,604,605,606",CD94,
200,Centre Social Germaine Tillon,,27 avenue Charles Gide,94270,Le Kremlin-Bicêtre,Mo 14:00-16:00; We 17:00-18:30; Th 10:00-12:00; Fr 13:30-17:30,0145152390,ivignacourt@ville-kremlin-bicetre.fr,,"1,2",,,,2,"110,111,112,113,114,115,203,204,205,208,209,212,214,332,333,334,335,336,337,401,404,407,408,601,604,605,606",CD94,
201,Centre Social Inter G des Larris,,15 bis rue Jean Mace,94120,Fontenay-sous-Bois,"Mo,Sa 13:30-18:00; Tu-Fr 10:00-12:00,13:30-19:00; Th off",0149747777,cyberchalet@fontenay-sous-bois.fr,,"1,2",,,,2,"110,111,112,113,114,115,203,204,205,208,209,212,214,332,333,334,335,336,337,401,404,407,408,601,604,605,606",CD94,
202,Centre Social Rond d'or,,16-19 place de la Fraternite,94370,Sucy-en-Brie,"Mo 13:30-18:30; Tu-Fr 08:30-12:00,13:30-18:30",0156741010,maison-rondor@ville-sucy.fr,,"1,2",,,,2,"110,111,112,113,114,115,203,204,205,208,209,212,214,332,333,334,335,336,337,401,404,407,408,601,604,605,606",CD94,
203,Centre Social Lamartine,,4 Square Lamartine,94230,Cachan,"Mo-Fr 10:00-12:00,14:00-22:00; Tu 14:00-22:00; Sa 09:00-17:00",0149696110,scslamartinedirection@gmail.com,www.agaescc.fr,"1,2",,,,2,"110111112113114115,203,204,205,208,209,212,214,332,333,334,335,336,337,401,404,407,408,601,604,605,606",CD94,
204,Centre Social Municipal Espace l'angevin,,31-33 rue Albert 1er,94600,Choisy-le-Roi,"Tu,Th 18:00-20:00",0148526349,accueil.espace-langevin@choisyleroi.fr,www.choisyleroi.fr,"1,2",,,,2,"110,111,112,113,114,115,203,204,205,208,209,212,214,332,333,334,335,336,337,401,404,407,408,601,604,605,606",CD94,
205,Centre Socio Culturel Avara,,2 Allee du Colonel Riviere,94260,Fresnes,Mo-Sa 09:30-21:00,0143509309,,scs-avara.com,1,,,,2,"110,111,112,113,114,115,203,204,205,208,209,212,214,332,333,334,335,336,337,401,404,407,408,601,604,605,606",CD94,
206,Centre Socio Culturel Kennedy,,36 boulevard Jhon Ftzgerald Kennedy,94000,Créteil,"Mo-Fr 09:00-12:45,14:00-19:00",0143775299,,,1,,,,2,"110,111,112,113,114,115,203,204,205,208,209,212,214,332,333,334,335,336,337,401,404,407,408,601,604,605,606",CD94,
207,Centre Socio Culturel la Lutece,,1 rue Charles Gounod,94460,Valenton,"Mo-Fr 09:00-12:00,14:00-18:00",0143868326,,,"1,2",,,,2,"110,111,112,113,114,115,203,204,205,208,209,212,214,332,333,334,335,336,337,401,404,407,408,601,604,605,606",CD94,
208,Centre Socio Culturel la Plaine,,1 Allee Pierre de Montreuil,94230,Cachan,"Mo 14:30-19:00; Tu-Fr 10:30-12:00,14:00-19:00",0149696010,scsplainedirection@gmail.com,www.agaescc.fr,"1,2",,,,2,"110,111,112,113,114,115,203,204,205,208,209,212,214,332,333,334,335,336,337,401,404,407,408,601,604,605,606",CD94,
209,Centre Socio Culturel le Forum,,59 avenue du Docteur Calmette,94290,Villeneuve-le-Roi,,0145977920,forum.villeneuve@ville-villeneuve-le-roi.fr,www.villeneuve-le-roi.fr,"1,2",,,,2,"110,111,112,113,114,115,203,204,205,208,209,212,214,332,333,334,335,336,337,401,404,407,408,601,604,605,606",CD94,
210,Centre Socio Culturel Madeleine Reberioux,,27 avenue Francois Mitterand,94000,Créteil,"Tu 10:30-12:30; We 10:30-12:30,14:00-16:30; Th 16:30-18:30; Sa 10:30-12:30,14:00-17:00",0141941815,contact@mjccreteil.com,,"1,2",,,,2,"110,111,112,113,114,115,203,204,205,208,209,212,214,332,333,334,335,336,337,401,404,407,408,601,604,605,606",CD94,
211,Centre Socio Culturel Maison Couste,,19 rue Cousté,94230,Cachan,"We 10:00-12:00,14:00-17:00",0145466715,,www.agaescc.fr,"1,2",,,,2,"110,111,112,113,114,115,203,204,205,208,209,212,214,332,333,334,335,336,337,401,404,407,408,601,604,605,606",CD94,
212,Centre Socioculturel la Plaine,,,,Cachan,,,,,"1,2",,,,3,,CD94,
213,Centre Socioculturel Lamartine,,,,Cachan,,,,,1,,,,3,,CD94,
214,Centre Socioculturel Lamartine,,,,Cachan,,,,,1,,,,3,,CD94,
215,Centre Socioculturel Madeleine Rebérioux,,,,Créteil,,,,,1,,,,3,,CD94,
216,Centre Socioculturel Maison Cousté,,,,Cachan,,,,,1,,,,3,,CD94,
217,Cite des Metiers,,14 rue Waldeck Rousseau,94600,Choisy-le-Roi,"Mo 09:30-12:00,13:00-17:00; Tu-Fr 13:00-17:30",0148924900,,,"1,2",,,,8,"110,111,112,113,114,115,801,802,805,806,811,814",CD94,
218,Cllaj 18 - 30 Ans,,6-12 avenue du President Wilson,94230,Cachan,"Tu 09:30-12:00; Th 09:30-12:30,14:00-17:00",0145465139,accueil@cllajvdb.fr,,"1,2",,,,1,"110,111,112,113,114,115,203,204,205,208,209,212,214",CD94,
219,Club Micronet Vincennes,,16 rue Charles Pathé,94300,Vincennes,,0143749273,,,1,,,,3,,CD94,
220,Cs Germaine Tillion,,,,Le Kremlin-Bicêtre,,,,,1,,,,3,,CD94,
221,Csc Kennedy,,,,Créteil,,,,,1,,,,3,,CD94,
222,Cyber Espace,,15 rue du President Wilson,94250,Gentilly,Tu 14:00-18:00; We-Fr 13:00-18:00; Sa 09:30-12:00,0145366682,cyberespace@ville-gentilly.fr,ville.gentilly.fr,"1,2",,,,2,"110,111,112,113,114,115,203,204,205,208,209,212,214,332,333,334,335,336,337,401,404,407,408,601,604,605,606",CD94,
223,Cyber Espace du Colombier,,4 rue du General Leclerc,94520,Mandres-les-Roses,Tu 14:30-16:30; Th 14:00-16:00; Fr 10:00-12:00,0608437059,cybermandres@gmail.com,cybermandres.blog4ever.com,1,,,,5,"110,111,112,113,114,115,203,204,205,208,209,212,214,332,333,334,335,336,337,401,404,407,408,502,505,509,517,518,520,525,601,604,605,606",CD94,
224,Direction de l'emploi et de l'economie Espace Toffoli,,12 rue du Cadran,94220,Charenton-le-Pont,Mo-Fr 09:00-12:00,0146765000,eco@charenton.fr,www.charenton.fr,"1,2",,,,1,"110,111,112,113,114,115,",CD94,
225,Ecrire Ensemble (Asso),,,,Cachan,,,,,1,,,,3,,CD94,
226,Emmaüs Connect Mont Mesly,,,,Créteil,,,,,1,,,,3,,CD94,
227,Espace Emploi l'escale,,2 boulevard Friedberg,94350,Villiers-sur-Marne,"Mo-Fr 08:30-12:00,13:30-17:00",0149414150,,,"1,2",,,,1,"110,111,112,113,114,115,",CD94,
228,Espace Emploi,,3 rue Felix Faure,94360,Bry-sur-Marne,Mo-Fr 09:00-12:00,0145166840,emploi@bry94.fr,,"1,2",,,,1,"110,111,112,113,114,115,",CD94,
229,Espace Insertion,,12 rue Dalayrac,94120,Fontenay-sous-Bois,"Mo-Th 09:00-12:00,14:00-17:00; We,Fr 09:00-12:00",0145140780,esp-insertion.fontenay@valdemarne.fr,,"1,2",,,,1,"110,111,112,113,114,115,203,204,205,208,209,212,214,",CD94,
230,Espace Emploi,,55 rue du Marechal Leclerc,94410,Saint-Maurice,Mo-Fr 09:00-12:00; We off,0145188068,emploi@ville-saint-maurice.fr,,"1,2",,,,1,"110,111,112,113,114,115,203,204,205,208,209,212,214,",CD94,
231,Espace Famille le Manoir,,9 rue de l'eglise,94440,Villecresnes,"Mo-Fr 08:30-12:00,13:30-17:00",0145103925,espacefamille@villecresnes.fr,,"1,2",,,,6,"110,111,112,113,114,115,203,204,205,208,209,212,214,332,333,334,335,336,337,601,604,605,606",CD94,
232,Espace Numerique - Médiathèque Coeur de Ville,,98 rue de Fontenay,94300,Vincennes,,0143986750,,,1,,,,3,,CD94,
233,Espace Public Internet Gagarine,,7 rue Trillot,94200,Ivry-sur-Seine,"Tu,Th 14:00-18:00; We 10:00-12:00,14:00-17:00; Fr 10:00-12:00,14:00-16:45",0172046321,epi.gagarine@ivry94.fr,,"1,2",,,,7,"110,111,112,113,114,115,332,333,334,335,336,337,401,404,407,408,502,505,509,517,518,520,525,703,704,705,709,712,714,715,722",CD94,
234,Espace Public Internet Jean Jacques Rousseau,,46 rue Jean Jacques Rousseau,94200,Ivry-sur-Seine,"Mo-We 10:00-12:00,14:00-18:00; Fr 10:00-12:00,14:00-17:00",0149609011,epi.jjrousseau@ivry94.fr,,"1,2",,,,7,"110,111,112,113,114,115,332,333,334,335,336,337,401,404,407,408,502,505,509,517,518,520,525,703,704,705,709,712,714,715,722",CD94,
235,Espace Public Internet Monmousseau,,17 rue Gaston Monmousseau,94200,Ivry-sur-Seine,"Tu,Th 14:00-18:00; We,Fr 10:00-12:00,14:00-18:00",0172046654,epi.monmousseau@ivry94.fr,,"1,2",,,,7,"110,111,112,113,114,115,332,333,334,335,336,337,401,404,407,408,502,505,509,517,518,520,525,703,704,705,709,712,714,715,722",CD94,
236,Espace Public Internet Pierre et Marie Curie,,44 rue Jean le Galleu,94200,Ivry-sur-Seine,"Mo-We 10:00-12:00,14:00-18:00; Th 14:00-18:00",0172046408,epi.pmc@ivry94.fr,,"1,2",,,,7,"110,111,112,113,114,115,332,333,334,335,336,337,401,404,407,408,502,505,509,517,518,520,525,703,704,705,709,712,714,715,722",CD94,
237,Foyer-Soleil des Bordières,,,,Créteil,,,,,1,,,,3,,CD94,
238,Ici Association,,13 rue de l'Avenir,94270,Le Kremlin-Bicêtre,"Mo-Fr 09:30-12:00,14:00-17:00",0952694722,equipe@associationici.fr,https://associationici.fr/,"1,2",,,,3,"110,111,112,113,114,115,203,204,205,208,209,212,214,332,333,334,335,336,337,401,404,407,408,502,505,509,517,518,520,525,801,802,805,806,811,814",CD94,
239,Ici (Asso),,,,Créteil,,,,,1,,,,3,,CD94,
240,Impact Formation,,171 rue Veron,94140,Alfortville,Mo-Fr 08:30-17:30,0143768815,,,"1,2",,,,2,"203,204,205,208,209,212,214",CD94,
241,Innovam Mission Locale 16 -25 Ans,,1 rue de la Gare,94230,Cachan,"Mo-Fr 09:00-12:30,14:00-17:30",0141986500,,www.missionlocale-imovan.fr,"1,2",,,,1,"110,111,112,113,114,115,332,333,334,335,336,337,401,404,407,408",CD94,
242,Interval Espace Multimedia,,2place Charles Digeon,94160,Saint-Mandé,Tu-Sa 14:30-15:30; Th 10:30-11:30,0148082739,interval@mairie-saint-mande.fr,,"1,2",,,,7,"110,111,112,113,114,115,332,333,334,335,336,337,401,404,407,408,502,505,509,517,518,520,525,703,704,705,709,712,714,715,722",CD94,
243,L'espace Internet de Vincennes,,26 rue de l'église,94300,Vincennes,,0177220008,,,1,,,,3,,CD94,
244,La Mine,,74 avenue de la Convention,94110,Arcueil,We-Sa 11:00-18:30,0769617320,www.ressourcerie-la-mine.com,,"1,2",,,,2,"110,111,112,113,114,115,203,204,205,208,209,212,214,332,333,334,335,336,337,401,404,407,408",CD94,
245,Mairie,,Place Roland Nungesser,94130,Nogent-Sur-Marne,"Mo-Fr 08:30-12:00,13:00-17:00; Sa 08:30-12:00",0143246200,communication@ville-nogentsurmarne.fr,,1,,,,2,"203,204,205,208,209,212,214",CD94,
246,Mairie,,53 bis rue de Fontenay,94300,Vincennes,"Mo-Fr 08:30-12:30,13:30-17:00",0143986500,,,"1,2",,,,2,"203,204,205,208,209,212,214",CD94,
247,Mairie,,Place de la Liberation,94170,Le Perreux-sur-Marne,"Mo-Fr 08:30-12:30,13:30-17:30; Sa 09:00-12:00",0148715353,,,1,,,,2,"203,204,205,208,209,212,214",CD94,
248,Mairie,,36 avenue Ardouin,94420,Le Plessis-Trévise,"Mo-Fr 08:30-12:300,13:30-17:30",0149622525,cantact@leplessistrevise.fr,www.leplessistresise.fr,"1,2",,,,2,"203,204,205,208,209,212,214",CD94,
249,Mairie,,Place de l'hotel de Ville,94880,Noiseau,"Mo 14:00-17:30; Tu-Fr 09:00-12:30,14:00-17:30; Sa 09:00-12:30",0156741570,mairie@noiseau.fr,www.mairie-noiseau.fr,1,,,,2,"203,204,205,208,209,212,214",CD94,
250,Mairie,,Rue de l’Hotel de Ville,94350,Villiers-sur-Marne,"Mo-Fr 08:30-12:00,13:30-17:00; Sa 08:45-11:45",0149413100,,www.villiers94.fr,"1,2",,,,2,"203,204,205,208,209,212,214",CD94,
251,Mairie,,2 avenue Georges Pompidou,94370,Sucy-en-Brie,"Mo-Fr 08:30-12:00,13:30-17:30",0149822450,servicecommunication@ville-sucy.fr,www.ville-sucy.fr,"1,2",,,,2,"203,204,205,208,209,212,214",CD94,
252,Mairie,,Place du General de Gaulle,94440,Villecresnes,"Mo-Fr 08:30-12:00,14:00-17:00; We 08:30-12:00",0156323232,,,"1,2",,,,2,"203,204,205,208,209,212,214",CD94,
253,Mairie,,41 rue Jean Jaures,94240,L'Haÿ-les-Roses,"Mo-Fr 08:30-12:00,13:30-18:00; Sa 09:00-12:00",0146153333,accueil.mairie@ville-lhay94.fr,,"1,2",,,,2,"203,204,205,208,209,212,214",CD94,
254,Mairie,,Square de la Liberation,94230,Cachan,"Mo-Fr 08:15-12:00,13:30-17:15; Sa 08:45-12:30",0149696969,,,"1,2",,,,2,"203,204,205,208,209,212,214",CD94,
255,Mairie,,1 place Jean Jaures,94270,Le Kremlin-Bicêtre,"Mo-Fr 08:30-12:30,14:00-18:00; Sa 08:30-12:00",0145155555,contact@ville-kremlin-bicetre.fr,,"1,2",,,,2,"203,204,205,208,209,212,214",CD94,
256,Mairie,,Place Charles de Gaulle,94440,Villecresnes,"Mo-Th 09:00-12:00,13:30-18:00; We off; Fr,Sa 09:00-12:00",0145103838,cabinet-mairie@mairie-marolles.fr,www.mairie-marolles.fr,1,,,,2,"203,204,205,208,209,212,214",CD94,
257,Mairie,,Place Gabriel Peri,94600,Choisy-le-Roi,"Mo-Fr 08:30-11:45,13:30-17:30",0148924444,courrier@choisyleroi.fr,,1,,,,2,"203,204,205,208,209,212,214",CD94,
258,Maison de l'emploi et de l'entreprise,,11-12 place de la Fraternite,94370,Sucy-en-Brie,"Mo-Fr 08:30-12:00,13:30-17:30; Th 13:30-17:30",0149820300,maison-emploi@ville-sucy.fr,,"1,2",,,,2,"110,111,112,113,114,115,203,204,205,208,209,212,214",CD94,
259,Maison de la Famille Espace Germaine Poinsot Chapuis,,12 avenue de l'eden,94420,Le Plessis-Trévise,We-Fr 09:30-11:00,0149622526,maisondelafamille@leplessistrevise.fr,www.leplessistrevise.fr,"1,2,3",,,,2,"203,204,205,208,209,212,214",CD94,
260,Maison des Associations,,14 place du Clos de Pacy,94370,Sucy-en-Brie,"Mo-Fr 09:00-12:00,13:30-17:00",0156316135,j.belechheb@ville.sucy.fr,,"1,2",,,,2,"203,204,205,208,209,212,214",CD94,
261,Maison des Initiatives de l'insertion et de l'emploi,,7 rue Paul Bert,94800,Villejuif,"Mo,We 09:30-12:00,13:30-17:30; Tu 09:30-12:00",0142111213,,,"1,2",,,,1,"110,111,112,113,114,115,203,204,205,208,209,212,214",CD94,
262,Maison des Solidarites,,120 rue Marius Sidobre,94110,Arcueil,"Tu 10:00-14:00; We 09:00-12:00,14:00-17:00; Th 14:00-20:00; Fr 14:00-17:00; Sa 10:00-13:00",0141242810,www.lamaison.asso.fr,,"1,2",,,,1,"110,111,112,113,114,115,203,204,205,208,209,212,214",CD94,
263,Maison du Citoyen et de la Vie Associative,,"16 rue du Reverend Père
Lucien Aubry",94120,Fontenay-sous-Bois,"Mo-Fr 09:00-12:00,15:00-19:00; Sa 09:30-12:30,14:30-18:30",0149747690,mdcva@fontenay-sous-bois.fr,www.fontenay-sous-bois.fr,"1,2",,,,2,"110,111,112,113,114,115,203,204,205,208,209,212,214",CD94,
264,Maison Pour Tous,,1 rue du Marechal Juin,94700,Maisons-Alfort,"Mo,Th 10:00-12:00,14:00-16:30; We 10:00-12:00,14:00-18:00; Fr 10:00-15:30",0145183990,,,"1,2",,,,2,"110,111,112,113,114,115,203,204,205,208,209,212,214,332,333,334,335,336,337,401,404,407,408,",CD94,
265,Maison Pour Tous,,59 rue de la Liberte,94700,Maisons-Alfort,"Tu-Fr 10:00-12:30,14:00-18:30; Sa 14:00-18:30",0141790830,maisonpourtousalfort@gmail.com,,"1,2",,,,2,"110,111,112,113,114,115,203,204,205,208,209,212,214,332,333,334,335,336,337,401,404,407,408,",CD94,
266,Maison Pour Tous,,12 rue Georges Gaume,94700,Maisons-Alfort,"Mo-Th 10:00-12:30,14:00-18:30; We 09:00-12:30,14:00-19:00; Fr 14:00-17:15",0141791965,maisonpourtousalfort@gmail.com,www.omc-maisons-alfort.asso.fr,"1,2",,,,2,"110,111,112,113,114,115,203,204,205,208,209,212,214,332,333,334,335,336,337,401,404,407,408,",CD94,
267,Maison Pour Tous,,23 rue de Bearn,94550,Chevilly-Larue,"Mo 18:30-20:30; We,Fr 09:00-12:30,13:30-18:30",0146759322,contct@mpt-chevillylarue.fr,mpt-chevillylarue.fr,"1,2",,,,2,"110,111,112,113,114,115,203,204,205,208,209,212,214,332,333,334,335,336,337,401,404,407,408,",CD94,
268,Maison Pour Tous (Mpt) Jean Ferrat,,,,Créteil,,,,,1,,,,3,,CD94,
269,Media Ludotheque du Palais,,43 bis Allee Parmentier,94000,Créteil,"We,Sa 13:00-18:00; Fr 15:00-19:00",0142075854,,,"1,2",,,,3,"110,111,112,113,114,115,203,204,205,208,209,212,214,332,333,334,335,336,337,401,404,407,408,",CD94,
270,Médiathèque,,3 avenue de Liege,94160,Saint-Mandé,"Tu,Fr 14:00-19:00; We,Sa 10:00-18:00",0149577844,accueil.mediatheque@mairie-saint-mande.fr,www.mediatheque.mairie-saint-mande.fr,"1,2",,,,7,"332,333,334,335,336,337,401,404,407,408,703,704,705,709,712,714,715,722",CD94,
271,Médiathèque,,70 bis avenue Ledru Rollin,94170,Le Perreux-sur-Marne,"Tu 15:00-19:00; We,Sa 10:00-18:00; Fr 10:00-12:00,15:00-19:00",0148713857,mediatheque@leperreux94.fr,www.leperreux94.fr,"1,2",,,,7,"332,333,334,335,336,337,401,404,407,408,703,704,705,709,712,714,715,722",CD94,
272,Médiathèque,,53 avenue de Fontainebleau (Centre Commercial Okabe),94270,Le Kremlin-Bicêtre,"Tu-Fr 12:00-19:00; We,Sa 10:00-19:00",0149601525,,,"1,2",,,,7,"332,333,334,335,336,337,401,404,407,408,703,704,705,709,712,714,715,722",CD94,
273,Médiathèque,,152 avenue Danielle Casanova,94200,Ivry-sur-Seine,"Tu,Fr 14:00-20:00; We,Sa 10:00-18:00",0156202530,mediatheque@ivry94.fr,mediatheque.ivry94.fr,1,,,,7,"332,333,334,335,336,337,401,404,407,408,703,704,705,709,712,714,715,722",CD94,
274,Médiathèque,,Rue Chevre d'autreville,94320,Thiais,"Tu,Fr 14:00-18:00; We 09:00-18:00; Th 09:00-12:00,14:00-18:00; Sa 10:00-12:00,14:00-18:00",0148924271,media.bibliotheque@ville-thiais.com,mediatheque-thiais.dnsalias.net,1,,,,7,"332,333,334,335,336,337,401,404,407,408,703,704,705,709,712,714,715,722",CD94,
275,Médiathèque,,27 Quater avenue de la Sabliere,94450,Limeil-Brévannes,"Tu,Fr 14:00-18:30; We,Sa 10:00-18:00",0141943230,mediatheque.limeil-brevannes@gpsea.fr,,"1,2",,,,7,"332,333,334,335,336,337,401,404,407,408,703,704,705,709,712,714,715,722",CD94,
276,Médiathèque,,1 rue Maurice Berthaux,94370,Sucy-en-Brie,"Tu,Fr 14:00-18:00; We,Sa 09:00-18:00",0141941830,mediatheque.sucy@gpsea.fr,www.ville-sucy.fr,1,,,,7,"332,333,334,335,336,337,401,404,407,408,703,704,705,709,712,714,715,722",CD94,
277,Médiathèque,,3 rue de la Division Leclerc,94250,Gentilly,"Tu,Fr 13:00-18:00; We 10:00-18:00; Sa 10:00-13:00,14:00-18:00",0141242148,mediatheque .numerique@ville-gentilly.fr,mediatheque.gentilly.fr,"1,2",,,,7,"332,333,334,335,336,337,401,404,407,408,703,704,705,709,712,714,715,722",CD94,
278,Médiathèque Andre Helle,,Place du Forum,94470,Boissy-Saint-Léger,"Tu-Fr 16:00-18:00; We 10:00-17:00; Sa 10:00-12:00,14:00-17:00",0145102677,mediatheque.boissy@gpsea.fr,,"1,2",,,,7,"332,333,334,335,336,337,401,404,407,408,703,704,705,709,712,714,715,722",CD94,
279,Médiathèque Andre Malraux,,4 rue Albert Camus,94700,Maisons-Alfort,"Tu-Fr 14:00-19:30; We,Sa 09:30-17:00",0143763077,,,"1,2",,,,7,"332,333,334,335,336,337,401,404,407,408,703,704,705,709,712,714,715,722",CD94,
280,Médiathèque Aragon,,17 rue Pierre Mendes France,94600,Choisy-le-Roi,"Tu,Fr 10:00-19:00; We,Sa 10:00-18:00; Th 12:00-19:00",0175376070,mediatheques@choisyleroi.fr,mediatheque.choisyleroi.fr,"1,2",,,,7,"332,333,334,335,336,337,401,404,407,408,703,704,705,709,712,714,715,722",CD94,
281,Médiathèque Boris Vian,,25 avenue du President Franklin Roosevelt,94550,Chevilly-Larue,"Tu,Th 15:00-20:00; We,Sa 10:00-18:00; Fr 15:00-18:00",0145601990,mediathequechevilly.cyber-base.org,mediatheque.ville-chevilly-larue.fr,"1,2",,,,7,"332,333,334,335,336,337,401,404,407,408,703,704,705,709,712,714,715,722",CD94,
282,Médiathèque Centre Culturel Aragon Triolet,,1 place Gaston Viens,94310,Orly,"Tu,Fr 14:00-18:00; We 10:00-13:00,14:00-18:00; Sa 10:00-17:00",0148902424,,www.centre-culturel-orly.fr,"1,2",,,,7,"332,333,334,335,336,337,401,404,407,408,703,704,705,709,712,714,715,722",CD94,
283,Médiathèque Cœur de Ville,,98 rue de Fontenay,94300,Vincennes,"Tu 10:30-12:30,16:00-19:00; We,Sa 15:00-18:00; Fr 16:00-19:00",0143986750,,www.biblio.vincennes.fr,"1,2",,,,7,"332,333,334,335,336,337,401,404,407,408,703,704,705,709,712,714,715,722",CD94,
284,Médiathèque Croix des Meches,,Rue Charpy,94000,Créteil,"Tu,Fr 14:00-18:00; We,Sa 10:00-18:00",0141943166,mediatheque.creteil.meches@gpsea.fr,mediatheque.sudestavenir.fr,"1,2",,,,7,"332,333,334,335,336,337,401,404,407,408,703,704,705,709,712,714,715,722",CD94,
285,Médiathèque de Bercy,,7 - 9 rue du Nouveau Bercy,94220,Charenton-le-Pont,"Tu 14:00-18:00; We,Sa 10:00-18:00; Fr 14:00-19:00",0146766500,,http://mediatheques.charentonlepont.fr,"1,2",,,,7,"332,333,334,335,336,337,401,404,407,408,703,704,705,709,712,714,715,722",CD94,
286,Médiathèque des Bleuets,,1 place des Bouleaux,94000,Créteil,"Tu,Fr 14:00-18:00; We 10:00-18:00",0141943093,mediatheque.creteil.bleuets@gpsea.fr,mediatheque.sudestavenir.fr,"1,2",,,,7,"332,333,334,335,336,337,401,404,407,408,703,704,705,709,712,714,715,722",CD94,
287,Médiathèque des Gondoles,,1 avenue d'alfortville,94600,Choisy-le-Roi,"Tu 15:00-18:00; We,Sa 10:00-12:00,13:30-18:00; Fr 10:00-12:00,15:00-18:00",0148906680,cvaissie@ville-choisy-le-roi.fr,mediatheque.choisyleroi.fr,"1,2",,,,7,"332,333,334,335,336,337,401,404,407,408,703,704,705,709,712,714,715,722",CD94,
288,Médiathèque des Quais,,36 Quai des Carrieres,94220,Charenton-le-Pont,"Tu,Th 14:00-18:00; We,Sa 10:00-18:00; Fr 14:00-19:00",0146766922,,http://mediatheques.charentonlepont.fr,"1,2",,,,7,"332,333,334,335,336,337,401,404,407,408,703,704,705,709,712,714,715,722",CD94,
289,Médiathèque du Pole Culturel,,82 rue Marcel Bourdarias,94140,Alfortville,"Tu,Fr 12:00-19:00; We,Sa 10:00-18:00",0143751001,mediatheque.alfortville-poleculturel@gpsea.fr,mediatheques.sudestavenir.fr,"1,2",,,,7,"332,333,334,335,336,337,401,404,407,408,703,704,705,709,712,714,715,722",CD94,
290,Médiathèque Elsa Triolet,,1 esplanade Pierre Yves Cosnier,94800,Villejuif,"Tu-Fr 13:00-19:00; We,Sa 10:00-18:00",0145592559,mediatheque@villejuif.fr,mediatheque.villejuif.fr,"1,2",,,,7,"332,333,334,335,336,337,401,404,407,408,703,704,705,709,712,714,715,722",CD94,
291,Médiathèque Espace Jean Moulin,,2 rue Boieldieu,94350,Villiers-sur-Marne,"Tu,Fr 15:00-19:00; We,Sa 10:00-18:00",0149413888,mediatheque@mail-villiers94.com,www.villiers94.fr,"1,2",,,,7,"332,333,334,335,336,337,401,404,407,408,703,704,705,709,712,714,715,722",CD94,
292,Médiathèque Eugene Delacroix,,29 rue du Marechal Leclerc,94410,Saint-Maurice,"Tu-Fr 13:00-18:00; We,Sa 10:00-17:00",0145188171,,,"1,2",,,,7,"332,333,334,335,336,337,401,404,407,408,703,704,705,709,712,714,715,722",CD94,
293,Médiathèque Ile St Pierre,,148 rue Etienne Dolet,94140,Alfortville,"Tu,Fr 15:00-19:00; We,Sa 10:00-18:00",0141941840,mediqtheque.alfortville.ile-saint-pierre@gpsea.fr,mediatheques.sudestavenir.fr,"1,2",,,,7,"332,333,334,335,336,337,401,404,407,408,703,704,705,709,712,714,715,722",CD94,
294,Médiathèque Jacques Duhamel,,Esplanade du 7 Juillet 1899,94420,Le Plessis-Trévise,"We,Sa 09:30-12:30; Th 16:00-18:00; Fr 14:30-20:00",0149622560,mediatheque.leplessistrevise@gpsea.fr,www.mediathequeplessis.net,"1,2",,,,7,"332,333,334,335,336,337,401,404,407,408,703,704,705,709,712,714,715,722",CD94,
295,Médiathèque Jacques Prevert,,7 rue Auguste Duru,94480,Ablon-sur-Seine,"Tu 14:00-18:00; We 10:00-12:30,14:00-18:30; Fr 15:00-19:00; Sa 10:00-12:30,14:00-17:00",0149613369,mediatheque-ablonsurseine@grandorlyseinebievre.fr,www.ablon-sur-seine.fr,"1,2",,,,7,"332,333,334,335,336,337,401,404,407,408,703,704,705,709,712,714,715,722",CD94,
296,Médiathèque Jean d'ormesson,,1 rue Antoine Pinay,94490,Ormesson-sur-marne,Mo-Fr 14:00-18:00; We 09:00-18:00; Th off; Sa 09:00-17:00,0145946585,mediatheque.ormesson@gpsea.fr,,"1,2",,,,7,"332,333,334,335,336,337,401,404,407,408,703,704,705,709,712,714,715,722",CD94,
297,Médiathèque Jean Ferrat,,53 rue de Paris,94190,Villeneuve-Saint-Georges,"Tu,Fr 16:00-18:00; We,Sa 09:00-17:00",0145950965,bibliotheque@villeneuve-saint-georges.fr,mediatheque.villeneuve-saint-georges.fr,"1,2",,,,7,"332,333,334,335,336,337,401,404,407,408,703,704,705,709,712,714,715,722",CD94,
298,Médiathèque Jules Verne,,28 rue des Tourmanfis,94360,Bry-sur-Marne,"Tu,Fr 14:00-17:00; We,Sa 10:00-18:00",0147065703,mediatheque@bry94.fr,www.mediatheque.bry94.fr,"1,2",,,,7,"332,333,334,335,336,337,401,404,407,408,703,704,705,709,712,714,715,722",CD94,
299,Médiathèque la Meridienne,,1 place du General de Gaulle,94150,Rungis,"Tu,Fr 14:00-19:00; We,Sa 10:00-18:00",0179616161,mediatheque@ville-rungis.fr,bibliotheque.rungis.fr,"1,2",,,,7,"332,333,334,335,336,337,401,404,407,408,703,704,705,709,712,714,715,722",CD94,
300,Médiathèque Louis Aragon,,2 avenue Rabelais,94120,Fontenay-sous-Bois,"Tu 16:00-19:30; We,Sa 10:30-12:30,14:00-18:00; Fr 12:00-18:00",0149747960,mediatheque@fontenay-sous-bois.fr,www.mediatheque.fontenay-sous-bois.fr,"1,2",,,,7,"332,333,334,335,336,337,401,404,407,408,703,704,705,709,712,714,715,722",CD94,
301,Médiathèque Louis Pergaud,,1 rue Louis Frebault,94110,Arcueil,"Tu-Fr 15:30-18:00; We 10:00-17:00; Sa 10:00-13:00,14:30-18:30",0149085170,mediatheque@mairie-arcueil.fr,www.arcueil.fr,"1,2",,,,7,"332,333,334,335,336,337,401,404,407,408,703,704,705,709,712,714,715,722",CD94,
302,Médiathèque Maison Pour Tous,,30 avenue de Newburn,94600,Choisy-le-Roi,"Tu,Fr 15:00-18:00; We,Sa 10:00-12:30,14:00-18:00",0148924463,mediatheque@choisyleroi.fr,www.choisyleroi.fr,"1,2",,,,7,"332,333,334,335,336,337,401,404,407,408,703,704,705,709,712,714,715,722",CD94,
303,Médiathèque Mongolfier,,6 place Mongolfier,94410,Saint-Maurice,"We 10:00-13:00,14:00-18:00; Fr 15:00-18:00; Sa 10:00-13:00",0149764725,,,"1,2",,,,7,"332,333,334,335,336,337,401,404,407,408,703,704,705,709,712,714,715,722",CD94,
304,Médiathèque Relais Village,,8 Passage de l'image Saint Martin,94000,Créteil,"Tu 14:00-18:00; We,Sa 10:00-18:00",0141943150,mediatheque.creteil.village@gpsea.fr,mediatheque.sudestavenir.fr,"1,2",,,,7,"332,333,334,335,336,337,401,404,407,408,703,704,705,709,712,714,715,722",CD94,
305,Médiathèque Rene Fallet,,10 Allee Mozart,94190,Villeneuve-Saint-Georges,Tu 16:00-18:00; We 09:00-18:00; Fr 16:00-19:00; Sa 09:00-17:00,0156871340,bibliotheque@villeneuve-saint-georges.fr,mediatheque.villeneuve-saint-georges.fr,"1,2",,,,7,"332,333,334,335,336,337,401,404,407,408,703,704,705,709,712,714,715,722",CD94,
306,Médiathèque de l'Abbaye Nelson Mandela,,3 place de l'abbaye,94000,Créteil,"Tu-Fr 12:00-19:00; We,Sa 10:00-18:00",0141946550,mediatheque;creteil.abbaye@gpsea.fr,mediatheque.sudestavenir.fr,"1,2",,,,7,"332,333,334,335,336,337,401,404,407,408,703,704,705,709,712,714,715,722",CD94,
307,Médiathèque de la Croix des Mèches,,,,Créteil,,,,,1,,,,3,,CD94,
308,Médiathèque des Bleuets,,,,Créteil,,,,,1,,,,3,,CD94,
309,Médiathèque Grand Paris Sud Est Avenir,,,,Créteil,,,,,1,,,,3,,CD94,
310,Médiathèque l'echo,,,,Le Kremlin-Bicêtre,,,,,1,,,,3,,CD94,
311,Médiathèque Nelson Mandela,,,,Créteil,,,,,1,,,,3,,CD94,
312,Mediathque Bernard Ywanne,,1 rue de la Commune,94380,Bonneuil-Sur-Marne,"Tu,Fr 14:00-19:00; We,Sa 10:00-18:00",0156715200,mdialudo.bonneuil@gpsea.fr,mediathequeludotheque.bonneuil94.fr,"1,2",,,,7,"332,333,334,335,336,337,401,404,407,408,703,704,705,709,712,714,715,722",CD94,
313,Mission Locale,,39 avenue Henri Barbusse,94400,Vitry-sur-Seine,"Mo-Fr 09:00-12:00,13:30-17:30; Tu 13:30-17:30",0147181430,,,"1,2",,,,3,"110,111,112,113,114,115,203,204,205,208,209,212,214,332,333,334,335,336,337,401,404,407,408",CD94,
314,"Mission Locale ""Le Carré """,,1 rue de l'egalite,94300,Vincennes,"Mo-We 08:30-12:30,13:30-17:30; Th 10:30-12:30,13:30-17:30; Fr 08:30-12:30,13:30-16:30",0171336450,y.ouakoushe@mlvmb.org,,"1,2",,,,3,"110,111,112,113,114,115,203,204,205,208,209,212,214,332,333,334,335,336,337,401,404,407,408",CD94,
315,Mission Locale 16-25 Ans,,7 avenue Marcel Cachin,94310,Orly,"Mo 09:00-12:30; Tu-Fr 09:00-12:30,14:00-17:30",0147181430,orlychoisyvilleneuveleroi@ml94.reseau-idf.org,,1,,,,3,"110,111,112,113,114,115,203,204,205,208,209,212,214,332,333,334,335,336,337,401,404,407,408",CD94,
316,Mission Locale Bievre Val de Marne 16-25 Ans,,28 rue Maurice Tenine,94260,Fresnes,"Mo-Th 09:00-12:00,13:30-17:30; Fr 09:00-12:30",0142375785,bvm@ml94.reseau-idf.org,www.missionlocalebvm.fr,"1,2",,,,3,"110,111,112,113,114,115,203,204,205,208,209,212,214,332,333,334,335,336,337,401,404,407,408",CD94,
317,Mission Locale Bievre Val de Marne 16-25 Ans,,83 avenue Rene Panhard,94320,Thiais,"Mo-Th 09:00-12:30,13:30-17:30; Fr 09:00-12:30",0148844970,,,"1,2",,,,3,"110,111,112,113,114,115,203,204,205,208,209,212,214,332,333,334,335,336,337,401,404,407,408",CD94,
318,Mission Locale Bievre Val de Marne 16-25 Ans,,3 rue de Bearn,94550,Chevilly-Larue,"Mo-Th 09:00-12:30,13:30-17:30; Fr 09:00-12:30",0145605944,,,1,,,,3,"110,111,112,113,114,115,203,204,205,208,209,212,214,332,333,334,335,336,337,401,404,407,408",CD94,
319,Mission Locale Bords de Marne 16 -25 Ans,,8 rue des Corluis,94170,Le Perreux-sur-Marne,"Mo 09:00-13:00; Tu-Fr 09:00-13:00,14:00-17:30",0148712000,bordademarne@ml94.reseau-idf.org,www.missionlocale-bardsdemarne.org,"1,2",,,,3,"110,111,112,113,114,115,203,204,205,208,209,212,214,332,333,334,335,336,337,401,404,407,408",CD94,
320,Mission Locale de la Plaine Centrale du Val de Marne 16-25 Ans,,22 rue Gutenberg,94450,Limeil-Brévannes,"Mo-Fr 09:00-12:30,13:30-17:00; Th 13:30-17:00",0145107782,,,"1,2",,,,3,"110,111,112,113,114,115,203,204,205,208,209,212,214,332,333,334,335,336,337,401,404,407,408",CD94,
321,Mission Locale de la Plaine Centrale du Val de Marne 16-25 Ans,,7 esplanade des Abimes,94000,Créteil,"Mo-Fr 09:00-12:30,13:30-17:30; Th 13:30-17:30",0143992800,aifpplaine centrale@ml94.reseau-idf.org,www.mission locale-plainecentrale.fr,"1,2",,,,3,"110,111,112,113,114,115,203,204,205,208,209,212,214,332,333,334,335,336,337,401,404,407,408",CD94,
322,Mission Locale Innovam Antenne du Kb,,40 avenue Charles Gides,94270,Le Kremlin-Bicêtre,"Mo-Fr 09:00-12:30,14:00-17:30; Th 09:00-12:30",0149584340,info@missionlocale-innovam.fr,,"1,2",,,,3,"110,111,112,113,114,115,203,204,205,208,209,212,214,332,333,334,335,336,337,401,404,407,408",CD94,
323,Mission Locale Plaine Centrale du Val de Marne 16 -25 Ans,,51 rue Marcel Bourdarias,94140,Alfortville,"Mo-Fr 09:00-12:30,13:30-17:30; Th 13:30-17:30",0143533596,,,"1,2",,,,3,"110,111,112,113,114,115,203,204,205,208,209,212,214,332,333,334,335,336,337,401,404,407,408",CD94,
324,Mission Locale Viva 16 -25 Ans,,32 rue Jules Guesde,94190,Villeneuve-Saint-Georges,"Mo-Th 09:00-12:00,13:30-17:30; Fr 09:00-12:00",0145109130,viv@ml94.reseau-idf.org,,"1,2",,,,3,"110,111,112,113,114,115,203,204,205,208,209,212,214,332,333,334,335,336,337,401,404,407,408",CD94,
325,Mission Locale 16 - 25 Ans,,83 rue Victor Hugo,94700,Maisons-Alfort,"Tu 09:00-11:30; We,Sa 14:00-16:30",0143962039,maisonsalfort@ml94.reseau-idf.org,www.mlma.asso.fr,"1,2",,,,3,"110,111,112,113,114,115,203,204,205,208,209,212,214,332,333,334,335,336,337,401,404,407,408",CD94,
326,Mission Locale 16 - 25 Ans,,2 avenue Hottinguer,94470,Boissy-Saint-Léger,"Mo-We 09:00-12:00,13:30-17:30; Th 13:30-17:30; Fr 09:00-12:00,13:30-16:00",0156323070,plateaubriard@ml94.reseau-idf.org,,"1,2",,,,3,"110,111,112,113,114,115,203,204,205,208,209,212,214,332,333,334,335,336,337,401,404,407,408",CD94,
327,Mission Locale 16 -25 Ans,,10 rue Dalayrac,94120,Fontenay-sous-Bois,"Mo-We 08:30-12:30,13:30-17:30; Th 10:30-12:30,13:30-17:30; Fr 08:30-12:30,13:30-16:30",0185331550,villesdunarddubois@ml94-idf.org,,"1,2",,,,3,"110,111,112,113,114,115,203,204,205,208,209,212,214,332,333,334,335,336,337,401,404,407,408",CD94,
328,Mission Locale de Vincennes,,6 avenue Pierre Brossolette,94300,Vincennes,,0141931380,,,1,,,,3,,CD94,
329,Mission Locale Innovam,,,,Cachan,,,,,1,,,,3,,CD94,
330,Misson Locale des Portes de la Brie,,41 avenue du General de Gaulle,94420,Le Plessis-Trévise,"Mo-Fr 09:00-12:30,13:30-17:30",0145766469,contact@portesdelabrie.org,www.ml-portesdelabrie.fr,"1,2",,,,3,"110,111,112,113,114,115,203,204,205,208,209,212,214,332,333,334,335,336,337,401,404,407,408",CD94,
331,Misson Locale des Portes de la Brie 16 - 25 Ans,,2 boulevard Friedberg,94350,Villiers-sur-Marne,"Mo-Fr 09:00-12:30,14:00-17:30",0149414166,,www.ml-portesdelabrie.fr,"1,2",,,,3,"110,111,112,113,114,115,203,204,205,208,209,212,214,332,333,334,335,336,337,401,404,407,408",CD94,
332,MJC Club Créteil,,,,Créteil,,,,,1,,,,3,,CD94,
333,MJC Mont Mesly,,,,Créteil,,,,,1,,,,3,,CD94,
334,MJC-Mpt de la Haye-Aux-Moines,,,,Créteil,,,,,1,,,,3,,CD94,
335,Mpt Bleuets et Bordières,,,,Créteil,,,,,1,,,,3,,CD94,
336,Point Info Jeunesse 16-25 Ans,,Place du 8 Mai 1945,94120,Fontenay-sous-Bois,"Mo-Fr 09:00-12:00,13:30-17:30; Th off",0149747686,contact@smj-fontenay.com,www.smj.fontenay-sous-bois.fr,"1,2",,,,1,"110,111,112,113,114,115,203,204,205,208,209,212,214,332,333,334,335,336,337,401,404,407,408",CD94,
337,Point Info Jeunesse le Point Cyber,,,,Le Kremlin-Bicêtre,,,,,1,,,,3,"110,111,112,113,114,115,203,204,205,208,209,212,214,332,333,334,335,336,337,401,404,407,408",CD94,
338,Point Info Jeunesse 16 - 25 Ans,,68 rue de Plaisance,94130,Nogent-Sur-Marne,"Mo,Tu 12:30-18:00; We,Th 09:30-12:00,13:30-19:00; Fr 09:30-12:00",0158730202,pij@ville-nogentsurmarne.fr,,"1,2",,,,1,"110,111,112,113,114,115,203,204,205,208,209,212,214,332,333,334,335,336,337,401,404,407,408",CD94,
339,Point Info Jeunesse 16 - 25 Ans,,7 rue du President Allende,94250,Gentilly,"Mo,Th 14:00-17:30; Tu,We 09:00-12:00,15:00-18:00; Fr 09:00-12:00",0149860776,pij@ville-gentilly.fr,,"1,2",,,,1,"110,111,112,113,114,115,203,204,205,208,209,212,214,332,333,334,335,336,337,401,404,407,408",CD94,
340,Point Info Jeunesse 16 - 25 Ans,,7 rue Paul Bert,94800,Villejuif,"Mo-Fr 09:00-12:00,13:30-17:30; Tu 09:00-12:15; Th off",0142111213,m2ie@villejuif.fr,,"1,2",,,,1,"110,111,112,113,114,115,203,204,205,208,209,212,214,332,333,334,335,336,337,401,404,407,408",CD94,
341,Point Info Jeunesse 16 - 25 Ans,,15 rue de la Mairie,94290,Villeneuve-le-Roi,"Mo-Fr 09:30-12:30,14:00-18:00; Tu,Th 09:30-12:30",0149614666,jeanlaurent.chassard@ville-villeneuve-le-roi.fr,www.villeneuve-le-roi.fr,"1,2",,,,1,"110,111,112,113,114,115,203,204,205,208,209,212,214,332,333,334,335,336,337,401,404,407,408",CD94,
342,Point Info Jeunesse 16 - 25 Ans Point Cyb,,4 Impasse Guerin,94460,Valenton,"Mo-Th 09:00-12:00,14:00-17:00; We 14:00-17:00; Fr 09:00-12:00",0143825150,,,"1,2",,,,1,"110,111,112,113,114,115,203,204,205,208,209,212,214,332,333,334,335,336,337,401,404,407,408",CD94,
343,Point Info Jeunesse 16 - 30 Ans,,10 avenue Paul Daumer,94110,Arcueil,"Mo-Th 09:00-12:00,14:00-17:00; We 14:00-17:00; Fr 09:00-12:00",0146150869,pij.arcueil@mairie-arcueil.fr,www.cidj.com,"1,2",,,,1,"110,111,112,113,114,115,203,204,205,208,209,212,214,332,333,334,335,336,337,401,404,407,408",CD94,
344,"Point Info Jeunesse 16 -25 Ans ""Le Carré """,,1 rue de l'egalite,94300,Vincennes,"Tu-Fr 12:00-14:00,16:00-20:00; We,Sa 14:00-19:00",0171336440,lecarre@vincennes.fr,,"1,2",,,,1,"110,111,112,113,114,115,203,204,205,208,209,212,214,332,333,334,335,336,337,401,404,407,408",CD94,
345,Point Info Jeunesse 16 -25 Ans Service Emploi,,25 avenue du General de Gaulle,94160,Saint-Mandé,,0148082324,,www.cidj.com,"1,2",,,,1,"110,111,112,113,114,115,203,204,205,208,209,212,214,332,333,334,335,336,337,401,404,407,408",CD94,
346,Point Info Jeunesse le Sechoir 11- 25 Ans,,34 bis rue des Tournelles,94240,L'Haÿ-les-Roses,"Mo-Fr 09:00-12:00,14:00-19:00; We 14:00-19:00",0149080230,service.jeunesse@ville-lhay94.fr,www.lhaylesroses.fr,"1,2",,,,1,"110,111,112,113,114,115,203,204,205,208,209,212,214,332,333,334,335,336,337,401,404,407,408",CD94,
347,Point Info Jeunesse 11 - 25 Ans,,2 rue Louis Sale,94450,Limeil-Brévannes,"Mo-Th 09:00-12:30,13:30-17:00; Fr 09:00-13:00",0145699858,pij.limeil@limeil.fr,,"1,2",,,,1,"110,111,112,113,114,115,203,204,205,208,209,212,214,332,333,334,335,336,337,401,404,407,408",CD94,
348,Point Info Jeunesse 16 - 25 Ans,,15 rue Henri Crette,94550,Chevilly-Larue,"Mo-Fr 09:30-12:00,13:30-18:30; Tu off",0146879765,contactsmj@ville-chevillyelarue.fr,,"1,2",,,,1,"110,111,112,113,114,115,203,204,205,208,209,212,214,332,333,334,335,336,337,401,404,407,408",CD94,
349,Point Info Jeunesse 16 - 25 Ans,,30 avenue Lucien Grelinger,94150,Rungis,"Mo,Fr 09:00-12:00,14:00-17:30; Tu-Th 15:00-18:00",0145128107,pij@ville-rungis.fr,,"1,2",,,,1,"110,111,112,113,114,115,203,204,205,208,209,212,214,332,333,334,335,336,337,401,404,407,408",CD94,
350,Point Info Jeunesse 16 - 25 Ans,,8 rue Chirol,94470,Boissy-Saint-Léger,"Tu 14:00-18:30; We 10:00-12:30,14:00-18:30; Th 16:00-18:30; Fr 10:00-12:30,16:00-19:30; Sa 14:00-17:30",0145695511,,,"1,2",,,,1,"110,111,112,113,114,115,203,204,205,208,209,212,214,332,333,334,335,336,337,401,404,407,408",CD94,
351,Point Info Jeunesse 16 - 25 Ans,,2 rue Jean Moulin,94380,Bonneuil-Sur-Marne,Mo-Fr 09:00-18:00; Th 14:00-18:00,0145138868,pij@bonneuil94.fr,,"1,2",,,,1,"110,111,112,113,114,115,203,204,205,208,209,212,214,332,333,334,335,336,337,401,404,407,408",CD94,
352,Point Info Jeunesse 16 - 25 Ans,,97 rue Etienne Dolet,94140,Alfortville,"We 09:30-12:30,14:00-19:00; Th 16:00-19:00; Fr 10:30-12:30,14:00-16:00",0158732104,,,"1,2",,,,1,"110,111,112,113,114,115,203,204,205,208,209,212,214,332,333,334,335,336,337,401,404,407,408",CD94,
353,Point Info Jeunesse 16 - 25 Ans,,7 bis Quai de Bercy,94220,Charenton-le-Pont,"Mo-Fr 10:00-13:00,14:00-19:00",0145183265,,www.cidj.com,"1,2",,,,1,"110,111,112,113,114,115,203,204,205,208,209,212,214,332,333,334,335,336,337,401,404,407,408",CD94,
354,Point Info Jeunesse 16 - 25 Ans,,2 place Saint Just,94400,Vitry-sur-Seine,"Mo,Fr 09:30-12:00,16:00-18:00; We 14:00-20:00",0155532140,service.jeunesse@mairie-vitry94.fr,www.vitry94.fr,"1,2",,,,1,"110,111,112,113,114,115,203,204,205,208,209,212,214,332,333,334,335,336,337,401,404,407,408",CD94,
355,Point Info Jeunesse 16 - 25 Ans,,3-5 rue Raspail,94200,Ivry-sur-Seine,"Mo-Fr 09:30-12:00,13:30-17:30; Th 09:30-12:00",0149602532,,,"1,2",,,,1,"110,111,112,113,114,115,203,204,205,208,209,212,214,332,333,334,335,336,337,401,404,407,408",CD94,
356,Point Info Jeunesse 16 - 30 Ans,,9 rue de la Marne,94190,Villeneuve-Saint-Georges,"Mo 14:00-18:00; Tu-Th 09:00-12:00,14:00-18:00; Fr 09:00-12:00",0143863911,jeunesse@mairie-villeneuve-saint-georges.fr,,"1,2",,,,1,"110,111,112,113,114,115,203,204,205,208,209,212,214,332,333,334,335,336,337,401,404,407,408",CD94,
357,Point Info Jeunesse 16 -25 Ans,,40 avenue Charles Gides,94270,Le Kremlin-Bicêtre,"Mo,We 09:30-12:30,14:00-18:00; Tu,Th 09:30-12:30,16:00-19:00; Fr 09:30-12:30",0149605570,pij@ville-kremlin-bicetre.fr,www.netvibes.com,"1,2",,,,1,"110,111,112,113,114,115,203,204,205,208,209,212,214,332,333,334,335,336,337,401,404,407,408",CD94,
358,Relais-Mairie des Bleuets,,,,Créteil,,,,,1,,,,3,,CD94,
359,Résidence du Moulin,,,,Cachan,,,,,1,,,,3,,CD94,
360,Service Mediation Prevention la Verriere,,6 place Henri d'astier,94220,Charenton-le-Pont,"Mo-Fr 10:30-12:30,14:00-19:00",0171335124,mediation-prevention@charenton.fr,www.charenton.fr,"1,2",,,,8,"801,802,805,806,811,814",CD94,
361,Service Municipal de la Jeunesse,,2 rue Waldeck Rousseau,94600,Choisy-le-Roi,"Mo-Fr 09:30-12:00,13:30-17:30",0178684086,,,"1,2",,,,6,607,CD94,
362,Télécentre Bassée Montois,Frédéric,1 rue de Augeres,77520,Donnemarie-Dontilly,Mo-Fr 08:00-17:00,0686347714,info@jehol-77.com,www.jehol-77.com,"1,2",oui,APTIC,,1,"111,114,315,316,317,401,404,408,723",Questionnaire,6
363,Espace de formation,Mme Perrotey,5 place du marché,77510,Rebais,Mo-Fr 09:00-19:00,0164032980,accueil@cc2m.fr,cc2morin.fr,"1,2",oui,APTIC,,3,"334,335,337,315,317,321,322,327,328,329,401,402,404,405,407,501,506,510,512,513,514,724,704,708,709,710,711,812,813,814",Questionnaire,7
